{
"type": "FeatureCollection",
"name": "barrido",
"crs": { "type": "name", "properties": { "name": "urn:ogc:def:crs:EPSG::5348" } },
"features": [
{ "type": "Feature", "properties": { "id": 127, "gid": 2.0, "fna": "Suroeste", "gna": "Municipio", "nam": "2", "in1": "060861", "fdc": "ARBA - Gerencia de Servicios Catastrales", "sag": "IGN" }, "geometry": { "type": "MultiPolygon", "coordinates": [ [ [ [ 6359650.485632825642824, 6177440.722044627182186 ], [ 6360919.31481674220413, 6178221.802371605299413 ], [ 6361625.42800170276314, 6178651.610395045951009 ], [ 6361971.358597759157419, 6178035.100418890826404 ], [ 6362287.449340743012726, 6177531.439342605881393 ], [ 6362443.757949978113174, 6177312.607288731262088 ], [ 6362620.907707175239921, 6177093.775234808214009 ], [ 6362880.216154777444899, 6176674.467955910600722 ], [ 6362392.994379636831582, 6176411.311813070438802 ], [ 6362245.182435723021626, 6176331.447362781502306 ], [ 6361434.512438101693988, 6174128.624129710718989 ], [ 6361434.511246327310801, 6174128.621018113568425 ], [ 6361434.361850376240909, 6174128.254916546866298 ], [ 6361417.881952690891922, 6174155.503439636901021 ], [ 6361378.934813666157424, 6174219.900007411837578 ], [ 6361353.671258705668151, 6174261.671089214272797 ], [ 6361227.17539313994348, 6174393.253706497140229 ], [ 6361133.132073795422912, 6174491.075312391854823 ], [ 6361025.49375381693244, 6174653.477342739701271 ], [ 6360867.310752269811928, 6174908.22123534232378 ], [ 6360788.042194964364171, 6175035.872205764055252 ], [ 6360650.689063966274261, 6175247.718946097418666 ], [ 6360576.197541696950793, 6175362.606253679841757 ], [ 6360424.104026268236339, 6175610.336221324279904 ], [ 6360399.598701577633619, 6175646.365875007584691 ], [ 6360229.220772989094257, 6175900.47601792216301 ], [ 6360058.115965395234525, 6176189.972328231669962 ], [ 6359943.000210694037378, 6176555.788136884570122 ], [ 6359930.805375055409968, 6176594.539446655660868 ], [ 6359865.358444757759571, 6176787.529204023070633 ], [ 6359858.215894646942616, 6176792.304043706506491 ], [ 6359640.297364385798573, 6177078.866570909507573 ], [ 6359643.874872889369726, 6177081.032771908678114 ], [ 6359771.509552353061736, 6177158.30984154343605 ], [ 6359660.621887586079538, 6177417.069366632029414 ], [ 6359650.485632825642824, 6177440.722044627182186 ] ] ] ] } },
{ "type": "Feature", "properties": { "id": 127, "gid": 3.0, "fna": "Vial Costero", "gna": "Municipio", "nam": "COSTA", "in1": "060861", "fdc": "ARBA - Gerencia de Servicios Catastrales", "sag": "IGN" }, "geometry": { "type": "MultiPolygon", "coordinates": [ [ [ [ 6365824.512462676502764, 6178500.25944559276104 ], [ 6365793.10410613194108, 6178563.076158996671438 ], [ 6365730.58066235948354, 6178615.179029019549489 ], [ 6365686.293223042041063, 6178662.071612012572587 ], [ 6365670.662362122908235, 6178685.517903495579958 ], [ 6365655.899882349185646, 6178701.148764491081238 ], [ 6365612.480824127793312, 6178715.042863222770393 ], [ 6365530.852994714863598, 6178761.935446293093264 ], [ 6365420.568586923182011, 6178840.089751358143985 ], [ 6365342.414282170124352, 6178886.982334421947598 ], [ 6365322.441515425220132, 6178910.428625911474228 ], [ 6365293.784937098622322, 6178966.873401688411832 ], [ 6365258.615500035695732, 6179023.318177477456629 ], [ 6365228.222159356810153, 6179069.3423792719841 ], [ 6365208.683583229780197, 6179110.15629406273365 ], [ 6365190.447578870691359, 6179160.088211078196764 ], [ 6365186.974054250866175, 6179179.192596710287035 ], [ 6365178.724433222785592, 6179198.731172936037183 ], [ 6365172.645765163935721, 6179244.321184102445841 ], [ 6365154.409760846756399, 6179313.791677327826619 ], [ 6365096.228223045356572, 6179434.496659357100725 ], [ 6365065.400691838003695, 6179505.703914938494563 ], [ 6365048.033068614080548, 6179542.175923897884786 ], [ 6365041.520209925249219, 6179564.319643615745008 ], [ 6365022.415824309922755, 6179571.700883556157351 ], [ 6364992.022483578883111, 6179592.976222158409655 ], [ 6364944.69571013469249, 6179615.988323121331632 ], [ 6364927.328086899593472, 6179646.381663929671049 ], [ 6364909.960463711991906, 6179700.221296184696257 ], [ 6364902.145033312961459, 6179740.166829783469439 ], [ 6364900.40827108360827, 6179787.493603268638253 ], [ 6364902.145033480599523, 6179819.623706363141537 ], [ 6364893.461221862584352, 6179834.820376764982939 ], [ 6364857.857594147324562, 6179858.266668288968503 ], [ 6364825.293300566263497, 6179908.198585335165262 ], [ 6364808.359867974184453, 6179968.116885740309954 ], [ 6364804.886343429796398, 6180021.956517967395484 ], [ 6364795.334150752052665, 6180087.519295930862427 ], [ 6364786.650339188054204, 6180127.464829531498253 ], [ 6364792.294816819019616, 6180155.253026789054275 ], [ 6364820.517204694449902, 6180162.200076050125062 ], [ 6364885.211601480841637, 6180159.160741840489209 ], [ 6364948.16923592146486, 6180148.740167728625238 ], [ 6365002.008868189528584, 6180166.541981493122876 ], [ 6365043.256973548792303, 6180177.830936548300087 ], [ 6365083.202507155016065, 6180186.080557531677186 ], [ 6365099.701749297790229, 6180189.119891573674977 ], [ 6365109.302637205459177, 6180189.727542686276138 ], [ 6365109.102122503332794, 6180179.677190731279552 ], [ 6365113.955659111961722, 6180161.52861301228404 ], [ 6365119.418652411550283, 6180146.557518721558154 ], [ 6365124.157089550048113, 6180136.328590660355985 ], [ 6365125.150687553919852, 6180134.525038605555892 ], [ 6365130.218025255948305, 6180125.326791778206825 ], [ 6365138.993159730918705, 6180108.027259835042059 ], [ 6365147.687810513190925, 6180096.271629454568028 ], [ 6365152.472210924141109, 6180082.874825993552804 ], [ 6365154.599930128082633, 6180071.815877167508006 ], [ 6365154.128418398089707, 6180059.134905903600156 ], [ 6365152.943891664035618, 6180050.404190111905336 ], [ 6365149.217672092840075, 6180036.09157280344516 ], [ 6365144.824546299874783, 6180022.561547151766717 ], [ 6365142.950024412944913, 6180016.197253157384694 ], [ 6365136.498227136209607, 6180008.97437637206167 ], [ 6365131.357509572058916, 6180001.770443538203835 ], [ 6365122.973613498732448, 6179992.142936420626938 ], [ 6365117.154325074516237, 6179986.513500521890819 ], [ 6365107.401932068169117, 6179980.826807049103081 ], [ 6365093.037681503221393, 6179976.657344549894333 ], [ 6365078.662012282758951, 6179973.279975982382894 ], [ 6365064.918820171616971, 6179971.495944972150028 ], [ 6365058.386526666581631, 6179969.816621292382479 ], [ 6365053.188322660513222, 6179966.572620753198862 ], [ 6365048.174344999715686, 6179950.656965177506208 ], [ 6365042.735182899981737, 6179918.892559337429702 ], [ 6365037.847752432338893, 6179894.265218958258629 ], [ 6365038.273802956566215, 6179864.962531347759068 ], [ 6365037.123966127634048, 6179853.855846602469683 ], [ 6365040.724043081514537, 6179831.72835735604167 ], [ 6365045.473942724987864, 6179820.707550994120538 ], [ 6365052.753719158470631, 6179816.06068963278085 ], [ 6365065.910276189446449, 6179813.083322285674512 ], [ 6365072.465484775602818, 6179813.178612812422216 ], [ 6365075.789176668971777, 6179810.058493111282587 ], [ 6365071.948068665340543, 6179803.665592214092612 ], [ 6365070.062137468717992, 6179798.093194630928338 ], [ 6365070.752236583270133, 6179795.726776569150388 ], [ 6365090.636529066599905, 6179780.965322773903608 ], [ 6365101.378045403398573, 6179763.694408759474754 ], [ 6365112.775079054757953, 6179746.433109630830586 ], [ 6365125.586674300953746, 6179722.06310473382473 ], [ 6365141.756274963729084, 6179692.196892782114446 ], [ 6365148.449471320025623, 6179682.788541087880731 ], [ 6365159.788797244429588, 6179669.487067497335374 ], [ 6365165.837998242117465, 6179659.277066005393863 ], [ 6365169.19603864569217, 6179653.780866120010614 ], [ 6365171.220128044486046, 6179649.849753439426422 ], [ 6365173.324666817672551, 6179640.374628014862537 ], [ 6365176.073328678496182, 6179631.701041691936553 ], [ 6365176.901356630958617, 6179619.831023532897234 ], [ 6365170.599305063486099, 6179602.312649238854647 ], [ 6365164.87237315159291, 6179590.347406639717519 ], [ 6365159.858450163155794, 6179574.43170253932476 ], [ 6365157.455047045834363, 6179559.346304190345109 ], [ 6365158.271672450937331, 6179548.26840285398066 ], [ 6365162.250708024948835, 6179545.157577954232693 ], [ 6365169.449681436643004, 6179546.054244430735707 ], [ 6365174.095758859068155, 6179542.161021552979946 ], [ 6365172.255847570486367, 6179533.420878313481808 ], [ 6365171.795804871246219, 6179519.947980505414307 ], [ 6365177.729941938072443, 6179517.657734273001552 ], [ 6365191.622095192782581, 6179509.146111540496349 ], [ 6365191.725625137798488, 6179502.018366900272667 ], [ 6365185.963977819308639, 6179492.428979367017746 ], [ 6365178.880089404061437, 6179483.612663191743195 ], [ 6365169.377121135592461, 6179476.217525776475668 ], [ 6365168.507186542265117, 6179475.540543678216636 ], [ 6365169.933232521638274, 6179467.63992761913687 ], [ 6365175.257735324092209, 6179462.172394476830959 ], [ 6365181.939239884726703, 6179453.556037648580968 ], [ 6365189.920220039784908, 6179445.750535516999662 ], [ 6365194.094840825535357, 6179429.176324661821127 ], [ 6365199.545840881764889, 6179414.997100728563964 ], [ 6365204.985323651693761, 6179401.609790098853409 ], [ 6365213.092678853310645, 6179385.092690197750926 ], [ 6365219.245246437378228, 6179367.755112326703966 ], [ 6365225.903647217899561, 6179360.722458833828568 ], [ 6365229.342056006193161, 6179349.682625482790172 ], [ 6365230.929046240635216, 6179330.694373971782625 ], [ 6365235.701494295150042, 6179318.089644363150001 ], [ 6365241.635322608985007, 6179315.799358648248017 ], [ 6365259.586513328365982, 6179298.632971913553774 ], [ 6365264.991354189813137, 6179287.621676927432418 ], [ 6365271.60367441829294, 6179283.756957290694118 ], [ 6365281.447375589981675, 6179283.107673995196819 ], [ 6365291.31414873059839, 6179280.874449114315212 ], [ 6365303.170310975052416, 6179277.085921969264746 ], [ 6365316.337511363439262, 6179273.316307012923062 ], [ 6365328.872160593047738, 6179267.953328674659133 ], [ 6365344.086178421974182, 6179258.668397128582001 ], [ 6365355.367197333835065, 6179249.326580255292356 ], [ 6365362.692337206564844, 6179241.511526189744473 ], [ 6365373.317964177578688, 6179232.159981111064553 ], [ 6365383.97803286742419, 6179220.432575888931751 ], [ 6365391.349075728096068, 6179209.449635792523623 ], [ 6365399.444541461765766, 6179193.724301268346608 ], [ 6365405.481703607365489, 6179184.306369703263044 ], [ 6365414.117784375324845, 6179176.510291648097336 ], [ 6365417.487002392299473, 6179170.221991910599172 ], [ 6365425.490515487268567, 6179160.83236529212445 ], [ 6365430.216684414073825, 6179151.395407916046679 ], [ 6365433.516977740451694, 6179149.858999397605658 ], [ 6365434.736135779879987, 6179156.213739166967571 ], [ 6365447.448176603764296, 6179155.667352692224085 ], [ 6365448.512688319198787, 6179155.621412388049066 ], [ 6365453.813723800703883, 6179151.737557557411492 ], [ 6365461.679403378628194, 6179151.851594095118344 ], [ 6365472.85693172737956, 6179149.637286649085581 ], [ 6365488.036334512755275, 6179142.728078397922218 ], [ 6365489.289285538718104, 6179141.995672204531729 ], [ 6365495.9707126095891, 6179138.090287329629064 ], [ 6365505.952050706371665, 6179127.937179568223655 ], [ 6365511.299120583571494, 6179120.885431101545691 ], [ 6365517.370554771274328, 6179109.091482599265873 ], [ 6365520.711090872995555, 6179102.285190236754715 ], [ 6365522.774989260360599, 6179098.079847666434944 ], [ 6365526.16714041121304, 6179090.207679696381092 ], [ 6365530.214713102206588, 6179082.345008076168597 ], [ 6365532.951261336915195, 6179074.463337898254395 ], [ 6365538.378856299445033, 6179061.867865686304867 ], [ 6365544.473007325083017, 6179048.489866307005286 ], [ 6365552.510711634531617, 6179036.724287229590118 ], [ 6365563.147305791266263, 6179026.580617691390216 ], [ 6365570.483653605915606, 6179017.973492830060422 ], [ 6365574.574984761886299, 6179011.276259211823344 ], [ 6365577.198901338502765, 6179006.980918773449957 ], [ 6365583.891356826759875, 6178997.572175009176135 ], [ 6365592.561364760622382, 6178987.399988134391606 ], [ 6365601.254458410665393, 6178975.643963540904224 ], [ 6365613.868738988414407, 6178964.736701889894903 ], [ 6365623.815526409074664, 6178956.959425021894276 ], [ 6365633.704546530731022, 6178953.141912523657084 ], [ 6365641.661871702410281, 6178946.920074248686433 ], [ 6365654.195799910463393, 6178941.556771875359118 ], [ 6365660.15237398352474, 6178937.682298158295453 ], [ 6365672.042330289259553, 6178931.517268184572458 ], [ 6365678.642676095478237, 6178928.44428429286927 ], [ 6365690.54415094666183, 6178921.487416100688279 ], [ 6365699.133819162845612, 6178916.858847850002348 ], [ 6365709.770198685117066, 6178906.715018809773028 ], [ 6365718.485908329486847, 6178893.374956626445055 ], [ 6365719.198789022862911, 6178889.424663248471916 ], [ 6365721.958049582317472, 6178879.958909902721643 ], [ 6365725.46456172503531, 6178864.1670136237517 ], [ 6365725.590623153373599, 6178855.455436728894711 ], [ 6365726.395099086686969, 6178845.169313136488199 ], [ 6365729.764074883423746, 6178838.881008129566908 ], [ 6365737.122961957938969, 6178828.689725334756076 ], [ 6365742.378020459786057, 6178827.97357995249331 ], [ 6365744.814402878284454, 6178829.067169490270317 ], [ 6365751.497026461176574, 6178832.066226597875357 ], [ 6365758.02861210796982, 6178833.744986261241138 ], [ 6365758.580904603935778, 6178840.882112732157111 ], [ 6365751.911816344596446, 6178848.70704603753984 ], [ 6365746.484873093664646, 6178861.302538170479238 ], [ 6365746.312996590510011, 6178873.182078565470874 ], [ 6365748.76293586846441, 6178885.09955140016973 ], [ 6365753.84624045714736, 6178896.263039370067418 ], [ 6365763.586446394212544, 6178902.741002776660025 ], [ 6365775.292989429086447, 6178909.247498281300068 ], [ 6365786.999552804045379, 6178915.753679139539599 ], [ 6365798.751942711882293, 6178919.092280384153128 ], [ 6365815.126933704130352, 6178920.121268761344254 ], [ 6365831.444673203863204, 6178925.110007531009614 ], [ 6365846.520130602642894, 6178925.327968830242753 ], [ 6365850.742627922445536, 6178925.657864018343389 ], [ 6365858.962479169480503, 6178926.299923540093005 ], [ 6365868.138870064169168, 6178926.43257166352123 ], [ 6365881.29378626588732, 6178923.45419008936733 ], [ 6365892.564495691098273, 6178923.617084129713476 ], [ 6365898.991145982407033, 6178923.709961510263383 ], [ 6365919.378990475088358, 6178919.251788835041225 ], [ 6365931.889905679039657, 6178915.471850364468992 ], [ 6365949.690214289352298, 6178908.599884270690382 ], [ 6365956.336287359707057, 6178902.358844513073564 ], [ 6365960.314940080977976, 6178899.247793424874544 ], [ 6365969.6865812567994, 6178884.436812231317163 ], [ 6365975.994727137498558, 6178874.467688476666808 ], [ 6365984.025078186765313, 6178869.773203937336802 ], [ 6365986.147610942833126, 6178851.367641852237284 ], [ 6365988.172098323702812, 6178831.526694062165916 ], [ 6365988.755034036934376, 6178826.746400862932205 ], [ 6365989.920989565551281, 6178817.185615945607424 ], [ 6365991.792393886484206, 6178801.841560390777886 ], [ 6365931.376062869094312, 6178692.925211847759783 ], [ 6365824.512462676502764, 6178500.25944559276104 ] ] ] ] } },
{ "type": "Feature", "properties": { "id": 127, "gid": 4.0, "fna": "Noroeste", "gna": "Municipio", "nam": "4", "in1": "060861", "fdc": "ARBA - Gerencia de Servicios Catastrales", "sag": "IGN" }, "geometry": { "type": "MultiPolygon", "coordinates": [ [ [ [ 6360919.31481674220413, 6178221.802371605299413 ], [ 6359650.485632825642824, 6177440.722044627182186 ], [ 6359647.669413914903998, 6177447.293615749105811 ], [ 6359614.696063647046685, 6177517.805239516310394 ], [ 6359559.230121380649507, 6177636.413255681283772 ], [ 6359558.935319034382701, 6177637.043915332295001 ], [ 6359553.95745384413749, 6177633.159893673844635 ], [ 6359215.329049712046981, 6177368.942200861871243 ], [ 6359057.16140497662127, 6177159.909753242507577 ], [ 6358840.027606895193458, 6176869.669349706731737 ], [ 6358838.74028161726892, 6176867.948764245025814 ], [ 6358385.757797870784998, 6177331.676633556373417 ], [ 6358216.56204052362591, 6177508.867225860245526 ], [ 6358088.728590729646385, 6177641.189122195355594 ], [ 6357810.229536257684231, 6177926.784875871613622 ], [ 6357347.627865463495255, 6178394.202940324321389 ], [ 6357348.024781928397715, 6178394.629402396269143 ], [ 6357496.765275284647942, 6178554.45304799452424 ], [ 6357512.449918483383954, 6178571.3058867957443 ], [ 6357512.45609469152987, 6178571.312468662858009 ], [ 6357512.462107280269265, 6178571.318948210217059 ], [ 6357971.707208714447916, 6179064.729806616902351 ], [ 6357989.316762091591954, 6179080.794541710056365 ], [ 6358059.300935565494001, 6179144.638388267718256 ], [ 6358062.785633157007396, 6179157.009689791128039 ], [ 6358117.355520851910114, 6179215.416905720718205 ], [ 6358338.416435766965151, 6179452.011564583517611 ], [ 6358532.456157079897821, 6179659.671509919688106 ], [ 6358709.819398651830852, 6179853.022834358736873 ], [ 6358724.62011094391346, 6179840.153420827351511 ], [ 6358856.523926165886223, 6179713.210710157640278 ], [ 6359110.143745989538729, 6179942.225374684669077 ], [ 6359223.800727450288832, 6180043.047336320392787 ], [ 6359306.540118338540196, 6180111.217528070323169 ], [ 6359308.941316904500127, 6180112.949806262739003 ], [ 6359451.104814049787819, 6180215.501112975180149 ], [ 6359387.900748239830136, 6180325.071574618108571 ], [ 6359838.787222471088171, 6180589.786673949100077 ], [ 6359913.036236718297005, 6180631.657888509333134 ], [ 6359953.24077589251101, 6180612.455720441415906 ], [ 6360012.290694975294173, 6180549.932276450097561 ], [ 6360182.49340305570513, 6180431.832437664270401 ], [ 6360422.166604151949286, 6180230.368006908334792 ], [ 6360755.624970776960254, 6179893.436114237643778 ], [ 6361019.612844194285572, 6179553.030697059817612 ], [ 6361300.968340834602714, 6179174.416508589871228 ], [ 6361468.403237028047442, 6178905.064717818051577 ], [ 6361620.532608442939818, 6178660.334858324378729 ], [ 6361625.42800170276314, 6178651.610395045951009 ], [ 6360919.31481674220413, 6178221.802371605299413 ] ] ] ] } },
{ "type": "Feature", "properties": { "id": 127, "gid": 5.0, "fna": "Noreste", "gna": "Municipio", "nam": "1", "in1": "060861", "fdc": "ARBA - Gerencia de Servicios Catastrales", "sag": "IGN" }, "geometry": { "type": "MultiPolygon", "coordinates": [ [ [ [ 6364203.53238710667938, 6180228.631236460991204 ], [ 6363699.871310763061047, 6179923.829448680393398 ], [ 6362843.647480929270387, 6179388.906652980484068 ], [ 6361917.953157828189433, 6178829.669184824451804 ], [ 6361625.42800170276314, 6178651.610395045951009 ], [ 6361620.532608442939818, 6178660.334858324378729 ], [ 6361468.403237028047442, 6178905.064717818051577 ], [ 6361300.968340834602714, 6179174.416508589871228 ], [ 6361019.612844194285572, 6179553.030697059817612 ], [ 6360755.624970776960254, 6179893.436114237643778 ], [ 6360422.166604151949286, 6180230.368006908334792 ], [ 6360182.49340305570513, 6180431.832437664270401 ], [ 6360012.290694975294173, 6180549.932276450097561 ], [ 6359953.24077589251101, 6180612.455720441415906 ], [ 6359913.036236718297005, 6180631.657888509333134 ], [ 6359985.982632796280086, 6180672.794518168084323 ], [ 6360316.223471011966467, 6180861.245560119859874 ], [ 6360413.421731176786125, 6180916.707766593433917 ], [ 6360553.501620302908123, 6180993.746559423394501 ], [ 6360794.089725859463215, 6181126.053256781771779 ], [ 6360942.093347075395286, 6181211.387595635838807 ], [ 6361121.826049036346376, 6181314.18828705791384 ], [ 6361121.830470628105104, 6181314.190947925671935 ], [ 6361121.834977804683149, 6181314.193410481326282 ], [ 6361578.445820059627295, 6181575.332795993424952 ], [ 6362037.590943741612136, 6181837.023411163128912 ], [ 6362342.127455174922943, 6182010.573620924726129 ], [ 6362450.914729651995003, 6182072.565574667416513 ], [ 6362671.004673399031162, 6182199.552693068981171 ], [ 6362811.15885005146265, 6182278.565264885313809 ], [ 6362811.161062780767679, 6182278.566495129838586 ], [ 6362811.163275511935353, 6182278.567725365050137 ], [ 6363052.241282540373504, 6182414.468305546790361 ], [ 6363291.866230320185423, 6182548.766609032638371 ], [ 6363392.231966537423432, 6182605.01372523792088 ], [ 6363451.944327450357378, 6182639.572984893806279 ], [ 6363461.674067047424614, 6182645.204093871638179 ], [ 6363655.069304247386754, 6182757.128791064955294 ], [ 6363929.76348337624222, 6182896.981096684932709 ], [ 6363953.515917668119073, 6182906.31736059486866 ], [ 6363959.862932230345905, 6182909.457071849144995 ], [ 6364109.999891120009124, 6182983.724679517559707 ], [ 6364113.021365519613028, 6182979.742983748205006 ], [ 6364117.002173027954996, 6182976.632466392591596 ], [ 6364122.340790764428675, 6182970.37347022537142 ], [ 6364125.501331896521151, 6182963.554500117897987 ], [ 6364128.232397203333676, 6182956.20122691616416 ], [ 6364132.735297795385122, 6182947.289594945497811 ], [ 6364141.487826068885624, 6182931.838871521875262 ], [ 6364152.821989608928561, 6182904.279878593981266 ], [ 6364156.35160144791007, 6182887.168516096659005 ], [ 6364160.389089486561716, 6182872.705187026411295 ], [ 6364163.323873932473361, 6182858.885588940232992 ], [ 6364165.683388125151396, 6182847.038037503138185 ], [ 6364169.212959260679781, 6182829.926769882440567 ], [ 6364169.981258114799857, 6182814.755492860451341 ], [ 6364167.499874974600971, 6182797.556251452304423 ], [ 6364166.198210594244301, 6182774.43328176625073 ], [ 6364167.140268009155989, 6182747.382496843114495 ], [ 6364170.563681113533676, 6182737.530854944139719 ], [ 6364175.205293024890125, 6182719.115636108443141 ], [ 6364180.853009827435017, 6182706.655996535904706 ], [ 6364185.446354754269123, 6182691.540531075559556 ], [ 6364193.299222855828702, 6182677.793013290502131 ], [ 6364196.761090902611613, 6182665.301414891146123 ], [ 6364197.48111635632813, 6182653.429892119020224 ], [ 6364197.731924682855606, 6182636.270689591765404 ], [ 6364197.407409475184977, 6182621.083335465751588 ], [ 6364194.302487652748823, 6182609.156003051437438 ], [ 6364190.075617196038365, 6182599.192527160048485 ], [ 6364177.690924976021051, 6182586.469382349401712 ], [ 6364168.50770786870271, 6182579.073847983032465 ], [ 6364157.636942688375711, 6182574.954194103367627 ], [ 6364149.450097938999534, 6182574.174436076544225 ], [ 6364143.56894401088357, 6182572.702268345281482 ], [ 6364141.682898734696209, 6182567.129704873077571 ], [ 6364139.129431751556695, 6182562.339664193801582 ], [ 6364134.919451465830207, 6182558.713374140672386 ], [ 6364132.693870786577463, 6182553.928026489913464 ], [ 6364131.779808797873557, 6182549.161758247762918 ], [ 6364128.231301999650896, 6182545.14914620667696 ], [ 6364123.658621785230935, 6182543.894196289591491 ], [ 6364118.447645291686058, 6182541.441533613950014 ], [ 6364118.177680941298604, 6182537.476967137306929 ], [ 6364116.613664107397199, 6182532.305099085904658 ], [ 6364111.724781880155206, 6182530.253234869800508 ], [ 6364110.775897885672748, 6182527.863005095161498 ], [ 6364112.806875946000218, 6182523.535901071503758 ], [ 6364115.798067985102534, 6182520.807307626120746 ], [ 6364118.116295501589775, 6182519.256946401670575 ], [ 6364125.674362194724381, 6182518.179110462777317 ], [ 6364128.004086200147867, 6182515.836831324733794 ], [ 6364131.001145178452134, 6182512.712227331474423 ], [ 6364132.9798255385831, 6182511.949080395512283 ], [ 6364137.938275944441557, 6182509.248950137756765 ], [ 6364138.640355898067355, 6182506.090682850219309 ], [ 6364136.069537105970085, 6182502.488561711274087 ], [ 6364129.921444330364466, 6182496.853665663860738 ], [ 6364128.046841613017023, 6182490.489181322976947 ], [ 6364131.35439820215106, 6182488.557194096036255 ], [ 6364135.950213449075818, 6182488.228312470018864 ], [ 6364139.608722597360611, 6182484.717287368141115 ], [ 6364137.676374589093029, 6182482.312578655779362 ], [ 6364132.856922839768231, 6182475.509037849493325 ], [ 6364128.025898120366037, 6182469.497308847494423 ], [ 6364121.831418639980257, 6182467.030262239277363 ], [ 6364115.965818893164396, 6182467.510617416352034 ], [ 6364113.623517101630569, 6182467.702396916225553 ], [ 6364105.427199106663465, 6182467.582510204054415 ], [ 6364106.175459862686694, 6182461.25638535246253 ], [ 6364109.810804272070527, 6182459.329200615175068 ], [ 6364109.944019926711917, 6182450.221636177040637 ], [ 6364108.104277975857258, 6182441.48120504617691 ], [ 6364108.513241465203464, 6182435.942300616763532 ], [ 6364114.115825185552239, 6182434.043789739720523 ], [ 6364116.819659895263612, 6182428.538351136259735 ], [ 6364117.86119972076267, 6182424.592966177500784 ], [ 6364116.314579422585666, 6182418.233274857513607 ], [ 6364113.076546849682927, 6182415.413470260798931 ], [ 6364107.929359008558095, 6182408.605119693093002 ], [ 6364107.354703080840409, 6182403.051727462559938 ], [ 6364103.800473250448704, 6182399.435110316611826 ], [ 6364097.629219284281135, 6182395.384017134085298 ], [ 6364095.702691866084933, 6182392.583490889519453 ], [ 6364095.725862777791917, 6182390.999562123790383 ], [ 6364098.026602674275637, 6182390.637126935645938 ], [ 6364101.621375205926597, 6182391.481796368025243 ], [ 6364109.811916274018586, 6182391.997696861624718 ], [ 6364115.402805180288851, 6182390.891298722475767 ], [ 6364116.789509367197752, 6182385.762686879374087 ], [ 6364119.493327224627137, 6182380.257447142153978 ], [ 6364123.772885031066835, 6182379.131664766930044 ], [ 6364127.160737813450396, 6182379.181214212439954 ], [ 6364128.034899816848338, 6182379.193999170325696 ], [ 6364132.326036124490201, 6182377.276398221962154 ], [ 6364135.592931809835136, 6182378.116359259933233 ], [ 6364138.865701920352876, 6182378.560313231311738 ], [ 6364143.501916127279401, 6182375.459478317759931 ], [ 6364147.453591452911496, 6182374.329189796000719 ], [ 6364152.049268396571279, 6182374.000200934708118 ], [ 6364160.579163931310177, 6182373.728935864754021 ], [ 6364166.79104174207896, 6182375.007938511669636 ], [ 6364171.029894369654357, 6182376.654281596653163 ], [ 6364177.91480528563261, 6182376.754941456951201 ], [ 6364183.52312736865133, 6182374.460383035242558 ], [ 6364186.894309079274535, 6182368.172598773613572 ], [ 6364189.902799914591014, 6182364.255862047895789 ], [ 6364194.257506974041462, 6182357.982453281059861 ], [ 6364197.628675946965814, 6182351.694665376096964 ], [ 6364201.965923690237105, 6182346.60927326977253 ], [ 6364208.148848584853113, 6182349.868084542453289 ], [ 6364214.021184855140746, 6182351.934276420623064 ], [ 6364216.063653542660177, 6182346.815336800180376 ], [ 6364214.528476628474891, 6182339.663647414185107 ], [ 6364211.624186632223427, 6182336.452663266099989 ], [ 6364202.156937835738063, 6182333.541837477125227 ], [ 6364197.613299450837076, 6182330.306885143741965 ], [ 6364193.403406655415893, 6182326.680717592127621 ], [ 6364182.653800000436604, 6182321.770865661092103 ], [ 6364172.542579698376358, 6182318.058310478925705 ], [ 6364169.960225902497768, 6182315.248111011460423 ], [ 6364178.559624130837619, 6182310.224846671335399 ], [ 6364185.473431315273046, 6182308.345566661097109 ], [ 6364187.15892734285444, 6182305.201772975735366 ], [ 6364190.506928788498044, 6182300.497916317544878 ], [ 6364185.951732181943953, 6182298.054971765726805 ], [ 6364181.045677771791816, 6182297.191062815487385 ], [ 6364178.4401701297611, 6182295.964794272556901 ], [ 6364178.129752326756716, 6182294.771980518475175 ], [ 6364179.803670768626034, 6182292.420102589763701 ], [ 6364181.817121194675565, 6182289.28090500459075 ], [ 6364188.385674858465791, 6182288.584851189516485 ], [ 6364194.022800769656897, 6182284.310550356283784 ], [ 6364202.897846665233374, 6182282.856020658276975 ], [ 6364205.871658923104405, 6182281.315123715437949 ], [ 6364206.245832529850304, 6182278.152158675715327 ], [ 6364205.297036936506629, 6182275.761938836425543 ], [ 6364199.413093997165561, 6182274.487553167156875 ], [ 6364191.562018822878599, 6182273.184605938382447 ], [ 6364182.422957628034055, 6182270.278554334305227 ], [ 6364175.268070857971907, 6182266.213228510692716 ], [ 6364168.412190116010606, 6182264.132727915421128 ], [ 6364161.234318323433399, 6182261.65132222417742 ], [ 6364156.075606809929013, 6182255.635009609162807 ], [ 6364150.858999215066433, 6182253.578266745433211 ], [ 6364148.616037108935416, 6182249.980939117260277 ], [ 6364150.974812279455364, 6182245.658622090704739 ], [ 6364151.33155123796314, 6182243.683479342609644 ], [ 6364155.645616595633328, 6182240.182037763297558 ], [ 6364158.694781675003469, 6182233.493363233283162 ], [ 6364161.070834680460393, 6182227.983220619149506 ], [ 6364163.411979530006647, 6182224.848918565548956 ], [ 6364166.69048651587218, 6182224.896857284009457 ], [ 6364171.924449774436653, 6182225.765669987536967 ], [ 6364176.824762484058738, 6182227.025294089689851 ], [ 6364177.526812132447958, 6182223.867123407311738 ], [ 6364174.306203476153314, 6182219.859316296875477 ], [ 6364172.772808209061623, 6182216.279853746294975 ], [ 6364172.086568884551525, 6182214.677868097089231 ], [ 6364170.516794473864138, 6182209.902212673798203 ], [ 6364166.330046780407429, 6182204.692100001499057 ], [ 6364162.827988117001951, 6182197.511637518182397 ], [ 6364159.279611871577799, 6182193.499031535349786 ], [ 6364158.353917297907174, 6182189.524875717237592 ], [ 6364158.417611955665052, 6182185.169095776043832 ], [ 6364159.14861816726625, 6182180.030989930965006 ], [ 6364159.640782650560141, 6182176.275463583879173 ], [ 6364159.161895274184644, 6182171.647688141092658 ], [ 6364150.525560701265931, 6182164.260308596305549 ], [ 6364137.498573704622686, 6182158.128613526001573 ], [ 6364134.326267754659057, 6182150.821029893122613 ], [ 6364140.452615074813366, 6182142.989290623925626 ], [ 6364152.894620553590357, 6182151.752741347998381 ], [ 6364158.885676869191229, 6182153.160458101890981 ], [ 6364170.906721386127174, 6182153.336235676892102 ], [ 6364175.316518342122436, 6182150.760301077738404 ], [ 6364181.34625440184027, 6182149.528255756013095 ], [ 6364188.928473171778023, 6182154.259882442653179 ], [ 6364195.944961966015399, 6182160.303438410162926 ], [ 6364199.663678410463035, 6182167.618986374698579 ], [ 6364210.055141684599221, 6182167.110936587676406 ], [ 6364215.557734085246921, 6182164.550957106985152 ], [ 6364224.730913298204541, 6182172.606273336336017 ], [ 6364225.258330238051713, 6182172.881436271592975 ], [ 6364231.239579629153013, 6182176.00186663120985 ], [ 6364238.371934243477881, 6182174.125845839269459 ], [ 6364256.3455078760162, 6182178.349220264703035 ], [ 6364263.985562774352729, 6182179.121010410599411 ], [ 6364271.011760890483856, 6182184.504495511762798 ], [ 6364278.009038519114256, 6182191.868010614998639 ], [ 6364282.859203900210559, 6182196.5596406115219 ], [ 6364288.821626982651651, 6182199.947311144322157 ], [ 6364299.701470806263387, 6182203.406811322085559 ], [ 6364310.639327506534755, 6182202.90642954222858 ], [ 6364320.532572191208601, 6182199.090314301662147 ], [ 6364333.723582324571908, 6182194.001945473253727 ], [ 6364344.719248675741255, 6182189.541752619668841 ], [ 6364348.065284720622003, 6182184.969845719635487 ], [ 6364355.303376283496618, 6182175.834001598879695 ], [ 6364360.883104330860078, 6182167.994143412448466 ], [ 6364367.613439693115652, 6182156.2103664977476 ], [ 6364374.363029544241726, 6182143.106661204248667 ], [ 6364381.17041277140379, 6182126.043080054223537 ], [ 6364386.232638192363083, 6182116.215395325794816 ], [ 6364390.211614067666233, 6182105.711642187088728 ], [ 6364391.468193851411343, 6182094.508092692121863 ], [ 6364392.18805249966681, 6182082.636555233970284 ], [ 6364392.631242421455681, 6182052.277806046418846 ], [ 6364392.258228457532823, 6182040.390513214282691 ], [ 6364391.329233152791858, 6182029.155056459829211 ], [ 6364392.518365698866546, 6182022.57119008526206 ], [ 6364393.73639664426446, 6182014.007686963304877 ], [ 6364394.993051961995661, 6182002.803937659598887 ], [ 6364391.878417577594519, 6181991.536572935059667 ], [ 6364387.594015438109636, 6181985.532950528897345 ], [ 6364381.660607128404081, 6181980.165502894669771 ], [ 6364376.302710916846991, 6181972.825996001251042 ], [ 6364367.67596335336566, 6181964.778702813200653 ], [ 6364363.053971965797246, 6181961.894362078979611 ], [ 6364357.927626612596214, 6181958.69528130069375 ], [ 6364335.650649591349065, 6181949.788563502952456 ], [ 6364323.735993538051844, 6181942.353458352386951 ], [ 6364312.296710778959095, 6181930.600705750286579 ], [ 6364311.352139988914132, 6181929.63035957980901 ], [ 6364308.199072116985917, 6181921.00281052198261 ], [ 6364304.499585264362395, 6181912.367177790030837 ], [ 6364301.883395748212934, 6181904.407721645198762 ], [ 6364302.535880357958376, 6181897.155870473943651 ], [ 6364317.24982382543385, 6181900.011325748637319 ], [ 6364318.927581306546926, 6181897.395321288146079 ], [ 6364324.037881587632, 6181884.267806867137551 ], [ 6364325.839078948833048, 6181880.316333151422441 ], [ 6364329.11933314986527, 6181873.120127804577351 ], [ 6364333.175318965688348, 6181857.336697625927627 ], [ 6364335.226790840737522, 6181845.458460326306522 ], [ 6364335.56335605494678, 6181843.50916376337409 ], [ 6364335.823617905378342, 6181825.689933718182147 ], [ 6364334.348306790925562, 6181814.446484084241092 ], [ 6364333.467619799077511, 6181799.911053937859833 ], [ 6364334.168189702555537, 6181789.359537455253303 ], [ 6364339.767086109146476, 6181780.199671018868685 ], [ 6364342.155016380362213, 6181766.372233394533396 ], [ 6364344.600775233469903, 6181748.584921443834901 ], [ 6364345.417080721817911, 6181730.113857127726078 ], [ 6364346.214029259048402, 6181712.96241650544107 ], [ 6364345.879757042974234, 6181698.434966148808599 ], [ 6364349.810433533042669, 6181691.231189495883882 ], [ 6364355.361149825155735, 6181685.371277302503586 ], [ 6364358.237460915930569, 6181675.511487101204693 ], [ 6364360.586876690387726, 6181664.323895008303225 ], [ 6364361.229585587978363, 6181657.732249734923244 ], [ 6364364.106129937805235, 6181647.872561166062951 ], [ 6364367.040330719202757, 6181634.052995204925537 ], [ 6364370.588478670455515, 6181615.621622016653419 ], [ 6364372.43000952526927, 6181601.786197978071868 ], [ 6364374.184800163842738, 6181593.890485192649066 ], [ 6364377.646106585860252, 6181581.398819696158171 ], [ 6364381.174863249063492, 6181564.287365994416177 ], [ 6364384.128456635400653, 6181549.147971843369305 ], [ 6364387.522277561016381, 6181541.276289409957826 ], [ 6364391.452864789403975, 6181534.072296990081668 ], [ 6364390.437229119241238, 6181528.776642167940736 ], [ 6364387.830651040188968, 6181520.157091375440359 ], [ 6364383.546403048560023, 6181514.153554766438901 ], [ 6364373.223230816423893, 6181510.04208982270211 ], [ 6364368.948635649867356, 6181503.378533556126058 ], [ 6364373.473811394535005, 6181492.882865002378821 ], [ 6364377.356202589347959, 6181488.978840571828187 ], [ 6364383.337379137054086, 6181491.046540680341423 ], [ 6364391.590729902498424, 6181487.206335343420506 ], [ 6364394.888244781643152, 6181485.934376377612352 ], [ 6364396.623729633167386, 6181479.358484514988959 ], [ 6364396.15441707894206, 6181474.070806519128382 ], [ 6364390.75811459030956, 6181469.371141607873142 ], [ 6364384.825218711979687, 6181464.003584491088986 ], [ 6364384.346277909353375, 6181459.375818201340735 ], [ 6364387.193837665952742, 6181451.496059793047607 ], [ 6364391.767071301117539, 6181437.700519151054323 ], [ 6364394.624175043776631, 6181429.160645202733576 ], [ 6364396.311467166058719, 6181425.884815389290452 ], [ 6364410.651800630614161, 6181416.85254520457238 ], [ 6364419.441835309378803, 6181413.680406490340829 ], [ 6364428.251051981002092, 6181409.1881338134408 ], [ 6364435.986897350288928, 6181403.360078708268702 ], [ 6364444.748011965304613, 6181402.167754296213388 ], [ 6364459.490092203021049, 6181403.043071844615042 ], [ 6364468.203047324903309, 6181405.150487942621112 ], [ 6364479.657371334731579, 6181406.637845796532929 ], [ 6364492.233380932360888, 6181406.161197064444423 ], [ 6364499.969100194051862, 6181400.332988996990025 ], [ 6364508.28971612546593, 6181391.873095992021263 ], [ 6364516.716228095814586, 6181376.153259642422199 ], [ 6364525.708278545178473, 6181359.121460598893464 ], [ 6364551.620664553716779, 6181306.030343662016094 ], [ 6364562.280549441464245, 6181287.042580096051097 ], [ 6364571.349433850497007, 6181264.730940202251077 ], [ 6364554.818728281185031, 6181251.617824672721326 ], [ 6364529.714305053465068, 6181234.352627670392394 ], [ 6364522.167864705435932, 6181218.263544443994761 ], [ 6364521.234582982026041, 6181216.274060843512416 ], [ 6364511.957635452970862, 6181192.90252901148051 ], [ 6364504.398427041247487, 6181171.668637874536216 ], [ 6364502.068614508956671, 6181151.567287512123585 ], [ 6364505.3924978710711, 6181140.987970093265176 ], [ 6364500.610382692888379, 6181131.676649118773639 ], [ 6364497.363051127642393, 6181128.041285863146186 ], [ 6364495.233417155221105, 6181125.657111402601004 ], [ 6364489.943382349796593, 6181113.69785944186151 ], [ 6364491.218957923352718, 6181101.174361446872354 ], [ 6364493.606549165211618, 6181087.346783794462681 ], [ 6364489.945958594791591, 6181076.071460612118244 ], [ 6364485.105861670337617, 6181070.719902389682829 ], [ 6364483.113062894903123, 6181057.488653903827071 ], [ 6364488.788459679111838, 6181043.048903916962445 ], [ 6364499.811604769900441, 6181036.608725887723267 ], [ 6364513.431551836431026, 6181039.447770464234054 ], [ 6364519.537633524276316, 6181032.935826374217868 ], [ 6364524.942858716472983, 6181028.498799482360482 ], [ 6364530.599174845963717, 6181023.855660728178918 ], [ 6364538.890649262815714, 6181017.375386974774301 ], [ 6364551.064317535609007, 6181006.991215574555099 ], [ 6364563.199125189334154, 6180999.246875109151006 ], [ 6364579.685558307915926, 6180992.88608921226114 ], [ 6364590.152746955864131, 6180987.09785423707217 ], [ 6364601.702715226449072, 6180981.985249889083207 ], [ 6364604.472897257655859, 6180979.385329772718251 ], [ 6364608.872405534610152, 6180977.469118720851839 ], [ 6364615.572862938046455, 6180967.665117317810655 ], [ 6364624.420052646659315, 6180960.532820797525346 ], [ 6364628.369556919671595, 6180952.00891082175076 ], [ 6364638.077049840241671, 6180915.844213841482997 ], [ 6364639.676954879425466, 6180896.064147129654884 ], [ 6364640.563492176122963, 6180880.234398662112653 ], [ 6364644.072410765103996, 6180864.442977110855281 ], [ 6364644.234037797898054, 6180853.355362706817687 ], [ 6364640.462012914009392, 6180842.210604801774025 ], [ 6364621.599840877577662, 6180831.63772956840694 ], [ 6364606.613526805303991, 6180825.082149263471365 ], [ 6364583.162234897725284, 6180814.44237473141402 ], [ 6364582.435154625214636, 6180814.018414247781038 ], [ 6364573.409243619069457, 6180808.755143988877535 ], [ 6364568.256916496902704, 6180802.342923397198319 ], [ 6364570.839442610740662, 6180796.936426118947566 ], [ 6364575.020668542943895, 6180788.183063859120011 ], [ 6364590.789577952586114, 6180786.036688947118819 ], [ 6364596.523534413427114, 6180787.149507772177458 ], [ 6364608.444372094236314, 6180789.462773597799242 ], [ 6364618.910732331685722, 6180791.199550158344209 ], [ 6364634.621821172535419, 6180793.012976667843759 ], [ 6364653.610914678312838, 6180794.873959342949092 ], [ 6364673.26718679536134, 6180795.952642755582929 ], [ 6364691.623820854350924, 6180796.220162148587406 ], [ 6364703.493700046092272, 6180791.640327022410929 ], [ 6364712.787360344082117, 6180783.854507533833385 ], [ 6364720.287357800640166, 6180764.160395592451096 ], [ 6364719.091485912911594, 6180756.221537907607853 ], [ 6364715.331125523895025, 6180744.28469776827842 ], [ 6364715.458054589107633, 6180735.573128641583025 ], [ 6364722.600238492712379, 6180740.429889841005206 ], [ 6364727.787244573235512, 6180744.466177032329142 ], [ 6364734.170056274160743, 6180756.441215828992426 ], [ 6364738.620771003887057, 6180766.011653592810035 ], [ 6364740.437601151876152, 6180776.335803894326091 ], [ 6364741.644948119297624, 6180783.482741356827319 ], [ 6364746.199429456144571, 6180785.925436034798622 ], [ 6364756.642814760096371, 6180789.246088179759681 ], [ 6364767.132262322120368, 6180789.398866194300354 ], [ 6364784.200762822292745, 6180788.063175957649946 ], [ 6364795.507207676768303, 6180777.137855888344347 ], [ 6364802.83396615460515, 6180769.323209478519857 ], [ 6364812.633247781544924, 6180771.842436791397631 ], [ 6364827.12546902243048, 6180767.300527720712125 ], [ 6364835.107823476195335, 6180759.495301676914096 ], [ 6364843.167972558178008, 6180741.935117164626718 ], [ 6364845.943072338588536, 6180735.889036789536476 ], [ 6364852.729485754854977, 6180720.145158763043582 ], [ 6364856.812851285561919, 6180709.906814646907151 ], [ 6364862.805367525666952, 6180703.656970651820302 ], [ 6364866.140962383709848, 6180699.744803221896291 ], [ 6364870.891372427344322, 6180688.724078877829015 ], [ 6364874.997839857824147, 6180676.901798125356436 ], [ 6364878.437229878269136, 6180665.862090514972806 ], [ 6364881.140068081207573, 6180660.356443962082267 ], [ 6364886.45386571995914, 6180655.680975045077503 ], [ 6364889.754859887994826, 6180654.144745234400034 ], [ 6364904.269903044216335, 6180648.018891215324402 ], [ 6364908.179353209212422, 6180641.831345163285732 ], [ 6364203.53238710667938, 6180228.631236460991204 ] ] ] ] } },
{ "type": "Feature", "properties": { "id": 127, "gid": 1.0, "fna": "Sureste", "gna": "Municipio", "nam": "1", "in1": "060861", "fdc": "ARBA - Gerencia de Servicios Catastrales", "sag": "IGN" }, "geometry": { "type": "MultiPolygon", "coordinates": [ [ [ [ 6361625.42800170276314, 6178651.610395045951009 ], [ 6361917.953157828189433, 6178829.669184824451804 ], [ 6362843.647480929270387, 6179388.906652980484068 ], [ 6363699.871310763061047, 6179923.829448680393398 ], [ 6364203.53238710667938, 6180228.631236460991204 ], [ 6364908.179353209212422, 6180641.831345163285732 ], [ 6364912.659520821645856, 6180634.740515951998532 ], [ 6364928.623929901979864, 6180619.130219243466854 ], [ 6364934.54326544329524, 6180614.229511701501906 ], [ 6364943.668048951774836, 6180606.6749417334795 ], [ 6364953.58081127051264, 6180597.446365855634212 ], [ 6364954.187123062089086, 6180597.256290850229561 ], [ 6364964.780092588625848, 6180590.281316574662924 ], [ 6364967.471508382819593, 6180585.567464463412762 ], [ 6364972.934951330535114, 6180570.596350909210742 ], [ 6364974.292324194684625, 6180553.259029211476445 ], [ 6364974.545642757788301, 6180550.024325009435415 ], [ 6364974.845105332322419, 6180529.433129251934588 ], [ 6364975.061005877330899, 6180528.669035567902029 ], [ 6364981.757856881245971, 6180504.97749596927315 ], [ 6364984.644945790991187, 6180486.800478059798479 ], [ 6364989.395202899351716, 6180475.779598785564303 ], [ 6364999.366951011121273, 6180466.419109337963164 ], [ 6365007.302849733270705, 6180461.78160532657057 ], [ 6365016.549954419955611, 6180457.163258550688624 ], [ 6365031.053009920753539, 6180451.829130789265037 ], [ 6365042.876221808604896, 6180450.416838964447379 ], [ 6365063.290890784002841, 6180444.376510810106993 ], [ 6365077.701822022907436, 6180445.378032962791622 ], [ 6365088.846476611681283, 6180445.539987122640014 ], [ 6365104.649172717705369, 6180441.016814906150103 ], [ 6365119.175240979529917, 6180434.098622664809227 ], [ 6365131.078863896429539, 6180427.142412669025362 ], [ 6365139.727785781957209, 6180418.55444669816643 ], [ 6365150.469871346838772, 6180401.283671643584967 ], [ 6365157.278553907759488, 6180383.95565649215132 ], [ 6365161.407463605515659, 6180370.549227899871767 ], [ 6365163.581226713955402, 6180356.322419265285134 ], [ 6365164.386274993419647, 6180346.03634262830019 ], [ 6365161.982588146813214, 6180330.951068510301411 ], [ 6365162.764716651290655, 6180322.248823499307036 ], [ 6365161.568630040623248, 6180314.310128541663289 ], [ 6365162.31616579554975, 6180307.983927540481091 ], [ 6365163.730800506658852, 6180300.875233263708651 ], [ 6365157.968882529996336, 6180291.285957181826234 ], [ 6365153.471987908706069, 6180284.883581141941249 ], [ 6365151.643412557430565, 6180275.351332232356071 ], [ 6365147.848139363341033, 6180265.790714344009757 ], [ 6365144.029784587211907, 6180257.813924172893167 ], [ 6365140.844020170159638, 6180251.43058645259589 ], [ 6365140.349577826447785, 6180240.333449605852365 ], [ 6365139.15352644212544, 6180232.394650124013424 ], [ 6365132.736087467521429, 6180222.795931282453239 ], [ 6365124.305950380861759, 6180216.336395984515548 ], [ 6365116.216828798875213, 6180212.281407678499818 ], [ 6365114.541795795783401, 6180211.441734751686454 ], [ 6365113.909219894558191, 6180209.84827833622694 ], [ 6365109.481526851654053, 6180198.693986960686743 ], [ 6365109.302637205459177, 6180189.727542686276138 ], [ 6365099.701749297790229, 6180189.119891573674977 ], [ 6365083.202507155016065, 6180186.080557531677186 ], [ 6365043.256973548792303, 6180177.830936548300087 ], [ 6365002.008868189528584, 6180166.541981493122876 ], [ 6364948.16923592146486, 6180148.740167728625238 ], [ 6364885.211601480841637, 6180159.160741840489209 ], [ 6364820.517204694449902, 6180162.200076050125062 ], [ 6364792.294816819019616, 6180155.253026789054275 ], [ 6364786.650339188054204, 6180127.464829531498253 ], [ 6364795.334150752052665, 6180087.519295930862427 ], [ 6364804.886343429796398, 6180021.956517967395484 ], [ 6364808.359867974184453, 6179968.116885740309954 ], [ 6364825.293300566263497, 6179908.198585335165262 ], [ 6364857.857594147324562, 6179858.266668288968503 ], [ 6364893.461221862584352, 6179834.820376764982939 ], [ 6364902.145033480599523, 6179819.623706363141537 ], [ 6364900.40827108360827, 6179787.493603268638253 ], [ 6364902.145033312961459, 6179740.166829783469439 ], [ 6364909.960463711991906, 6179700.221296184696257 ], [ 6364927.328086899593472, 6179646.381663929671049 ], [ 6364944.69571013469249, 6179615.988323121331632 ], [ 6364992.022483578883111, 6179592.976222158409655 ], [ 6365022.415824309922755, 6179571.700883556157351 ], [ 6365041.520209925249219, 6179564.319643615745008 ], [ 6365048.033068614080548, 6179542.175923897884786 ], [ 6365065.400691838003695, 6179505.703914938494563 ], [ 6365096.228223045356572, 6179434.496659357100725 ], [ 6365154.409760846756399, 6179313.791677327826619 ], [ 6365172.645765163935721, 6179244.321184102445841 ], [ 6365178.724433222785592, 6179198.731172936037183 ], [ 6365186.974054250866175, 6179179.192596710287035 ], [ 6365190.447578870691359, 6179160.088211078196764 ], [ 6365208.683583229780197, 6179110.15629406273365 ], [ 6365228.222159356810153, 6179069.3423792719841 ], [ 6365258.615500035695732, 6179023.318177477456629 ], [ 6365293.784937098622322, 6178966.873401688411832 ], [ 6365322.441515425220132, 6178910.428625911474228 ], [ 6365342.414282170124352, 6178886.982334421947598 ], [ 6365420.568586923182011, 6178840.089751358143985 ], [ 6365530.852994714863598, 6178761.935446293093264 ], [ 6365612.480824127793312, 6178715.042863222770393 ], [ 6365655.899882349185646, 6178701.148764491081238 ], [ 6365670.662362122908235, 6178685.517903495579958 ], [ 6365686.293223042041063, 6178662.071612012572587 ], [ 6365730.58066235948354, 6178615.179029019549489 ], [ 6365793.10410613194108, 6178563.076158996671438 ], [ 6365824.512462676502764, 6178500.25944559276104 ], [ 6365641.820596386678517, 6178170.881918129511178 ], [ 6365637.747671160846949, 6178163.538997322320938 ], [ 6364513.896680521778762, 6177556.844499249942601 ], [ 6362880.216154777444899, 6176674.467955910600722 ], [ 6362620.907707175239921, 6177093.775234808214009 ], [ 6362443.757949978113174, 6177312.607288731262088 ], [ 6362287.449340743012726, 6177531.439342605881393 ], [ 6361971.358597759157419, 6178035.100418890826404 ], [ 6361625.42800170276314, 6178651.610395045951009 ] ] ] ] } }
]
}
