{
"type": "FeatureCollection",
"name": "barrido",
"crs": { "type": "name", "properties": { "name": "urn:ogc:def:crs:OGC:1.3:CRS84" } },
"features": [
{ "type": "Feature", "properties": { "id": 127, "gid": 3.0, "fna": "Vial Costero", "gna": "Municipio", "nam": "3", "in1": "060861", "fdc": "ARBA - Gerencia de Servicios Catastrales", "sag": "IGN" }, "geometry": { "type": "MultiPolygon", "coordinates": [ [ [ [ -58.46144482462315, -34.530388893211068 ], [ -58.46177693316023, -34.529818721092987 ], [ -58.462449529947676, -34.529341039685733 ], [ -58.462924373921197, -34.528912686719323 ], [ -58.463090877678802, -34.528699359290975 ], [ -58.463249157242473, -34.528556574376204 ], [ -58.463719741233881, -34.528425700423874 ], [ -58.464601157255643, -34.527992466923827 ], [ -58.46578965466135, -34.527273764800455 ], [ -58.46663322629869, -34.526840971109586 ], [ -58.466846992835698, -34.526627071022688 ], [ -58.467150094936635, -34.526114666353998 ], [ -58.467524107057912, -34.525601408807496 ], [ -58.467847759458202, -34.525182681031445 ], [ -58.468054044478599, -34.524812326198749 ], [ -58.468244703008999, -34.524359974031 ], [ -58.468279501269187, -34.5241873587686 ], [ -58.4683662330524, -34.524010205487237 ], [ -58.468425206178942, -34.523598571998804 ], [ -58.468612769143547, -34.52297014599624 ], [ -58.469227140782621, -34.521874784768407 ], [ -58.469551511834496, -34.521229057054875 ], [ -58.469734830946329, -34.520898111407114 ], [ -58.469802234842078, -34.520697708309356 ], [ -58.470009067062023, -34.520628688217926 ], [ -58.470336607931266, -34.520432980428154 ], [ -58.470848235492504, -34.520219400546218 ], [ -58.471032510456084, -34.519943231411759 ], [ -58.471213068927547, -34.519455774196018 ], [ -58.471291828862618, -34.51909477726727 ], [ -58.471303237986696, -34.518668061055088 ], [ -58.471279237910586, -34.518378746240231 ], [ -58.471371372903882, -34.518240661409877 ], [ -58.471755282876885, -34.518024702943521 ], [ -58.472101901805161, -34.51757046521162 ], [ -58.472276758464936, -34.517028285186008 ], [ -58.472306038226257, -34.51654264987566 ], [ -58.472399637228605, -34.515950572794544 ], [ -58.472487843279836, -34.515589461133523 ], [ -58.472421986014524, -34.515339786772444 ], [ -58.472113630555832, -34.515280886794635 ], [ -58.471409791461859, -34.515316763378948 ], [ -58.470726028635497, -34.515418924829973 ], [ -58.470137062874713, -34.51526555940027 ], [ -58.469686212361481, -34.515169232718328 ], [ -58.469250024651487, -34.515100122956085 ], [ -58.469069918593732, -34.515074894485736 ], [ -58.468965298803987, -34.515070675795428 ], [ -58.468969071665462, -34.515161219115214 ], [ -58.468919102634622, -34.515325402045903 ], [ -58.468861995684676, -34.515461030602296 ], [ -58.468812026653836, -34.515553829845594 ], [ -58.468801494693366, -34.515570212795346 ], [ -58.468747781784813, -34.515653767007969 ], [ -58.468654983440828, -34.515810812019595 ], [ -58.46856218419758, -34.515917887101068 ], [ -58.468512215166747, -34.516039239819307 ], [ -58.468490799610834, -34.516139176981653 ], [ -58.468497938429252, -34.516253390881502 ], [ -58.468512215166747, -34.516331913387305 ], [ -58.468555046278468, -34.516460404923983 ], [ -58.468605014409995, -34.51658175674293 ], [ -58.468626429066596, -34.516638863692833 ], [ -58.468697812753973, -34.516703108561835 ], [ -58.468754919703869, -34.516767354330163 ], [ -58.468847718947181, -34.516853015654362 ], [ -58.46891196471551, -34.51690298378594 ], [ -58.469019039796976, -34.516952952816766 ], [ -58.469176084808616, -34.516988645110111 ], [ -58.469333128920859, -34.517017197685817 ], [ -58.469483035114081, -34.517031474423234 ], [ -58.469554418801501, -34.517045752060014 ], [ -58.469611525751404, -34.517074304635685 ], [ -58.469668632701357, -34.517217072909837 ], [ -58.469732877570365, -34.51750260765948 ], [ -58.469789986318908, -34.517723898439378 ], [ -58.469789986318908, -34.517988017633172 ], [ -58.469804263056389, -34.518087955694867 ], [ -58.46976857076303, -34.518287830918894 ], [ -58.469718601732211, -34.518387768081261 ], [ -58.469640080125707, -34.518430597394406 ], [ -58.469497311851555, -34.518459151768695 ], [ -58.469425928164178, -34.51845915176871 ], [ -58.469390235870833, -34.518487704344317 ], [ -58.469433066982546, -34.518544811294248 ], [ -58.469454481639161, -34.518594780325088 ], [ -58.469447342820708, -34.518616195880959 ], [ -58.469233191758512, -34.518751824437381 ], [ -58.469118977858649, -34.518908869449021 ], [ -58.468997625140446, -34.519065913561292 ], [ -58.468861995684669, -34.519287203441927 ], [ -58.468690674834924, -34.519558462353402 ], [ -58.468619291147476, -34.519644122778288 ], [ -58.468497938429252, -34.5197654745972 ], [ -58.46843369266093, -34.519858274739796 ], [ -58.468398001266827, -34.519908243770651 ], [ -58.468376585710971, -34.519943934265378 ], [ -58.468355171054441, -34.520029595589619 ], [ -58.468326616680123, -34.520108118095429 ], [ -58.468319478761082, -34.520215194076172 ], [ -58.468390863347786, -34.520372237289159 ], [ -58.46845510821678, -34.520479313269966 ], [ -58.468512215166747, -34.520622082443353 ], [ -58.468540768641667, -34.52075771099981 ], [ -58.468533629823284, -34.520857647262844 ], [ -58.468490799610834, -34.52088620163714 ], [ -58.46841227800433, -34.520879063718027 ], [ -58.468362308973482, -34.5209147560114 ], [ -58.468383723630076, -34.520993277617883 ], [ -58.468390863347786, -34.521114629436859 ], [ -58.468326616680137, -34.521136044992708 ], [ -58.468176709587603, -34.521214566599205 ], [ -58.468176709587617, -34.521278812367548 ], [ -58.468240957154585, -34.521364473691733 ], [ -58.468319478761082, -34.521442995298216 ], [ -58.468424113981811, -34.521508393098067 ], [ -58.468433692660923, -34.521514379884991 ], [ -58.468419415923449, -34.521585763572361 ], [ -58.468362308973482, -34.521635731703924 ], [ -58.468290925286112, -34.521714253310385 ], [ -58.46820526486124, -34.521785637897111 ], [ -58.46816243374947, -34.52193554409034 ], [ -58.468105326799488, -34.522064034727634 ], [ -58.468048219849599, -34.522185387445909 ], [ -58.46796256032404, -34.522335293639102 ], [ -58.467898313656406, -34.52249233775143 ], [ -58.46782692996895, -34.522556584419092 ], [ -58.467791238574925, -34.522656520682105 ], [ -58.46777696183743, -34.522827842431255 ], [ -58.467726992806597, -34.522942055431763 ], [ -58.467662747937581, -34.522963470987634 ], [ -58.467470010632603, -34.523120515999281 ], [ -58.467412903682707, -34.523220452262279 ], [ -58.467341519995259, -34.523256144555667 ], [ -58.467234444913842, -34.523263283374085 ], [ -58.467127368933035, -34.523284698929949 ], [ -58.466998878295712, -34.523320390323995 ], [ -58.466856110021567, -34.52335608261734 ], [ -58.466720480565854, -34.523406050748861 ], [ -58.466556297635158, -34.523491712073117 ], [ -58.466434945816211, -34.52357737159867 ], [ -58.466356424209721, -34.523648755286054 ], [ -58.466242209410545, -34.523734416610296 ], [ -58.466127994611377, -34.523841492591025 ], [ -58.466049473004865, -34.523941429753464 ], [ -58.46596381258, -34.524084198027559 ], [ -58.465899566811672, -34.524169857553147 ], [ -58.46580676756836, -34.524241241240539 ], [ -58.465771076174349, -34.524298349089797 ], [ -58.465685415749476, -34.524384010414003 ], [ -58.465635446718622, -34.524469669939556 ], [ -58.465599755324604, -34.524483946677023 ], [ -58.465585477687775, -34.524426839727063 ], [ -58.465447153863174, -34.524433424563128 ], [ -58.465435570595204, -34.524433977646197 ], [ -58.465378465443948, -34.524469669939563 ], [ -58.465292805019061, -34.524469669939556 ], [ -58.465171452300794, -34.5244910845961 ], [ -58.465007267571472, -34.524555330364407 ], [ -58.464993740868572, -34.524562094165567 ], [ -58.464921608945225, -34.524598160576872 ], [ -58.464814532964432, -34.524690959820198 ], [ -58.464757426014479, -34.524755205588527 ], [ -58.464693180246215, -34.524862280669936 ], [ -58.464657881855864, -34.524924052403321 ], [ -58.464636073296262, -34.524962218731659 ], [ -58.464600381002896, -34.525033602419064 ], [ -58.464557550790424, -34.525104986106435 ], [ -58.464528998214774, -34.52517636979389 ], [ -58.464471888566912, -34.525290583693732 ], [ -58.464407644597237, -34.525411936411942 ], [ -58.464321984172372, -34.525519012392735 ], [ -58.464207770272516, -34.525611811636054 ], [ -58.464129247766692, -34.525690333242544 ], [ -58.464085756552535, -34.525751220042991 ], [ -58.464057864079258, -34.52579027040489 ], [ -58.463986478593242, -34.525875931729111 ], [ -58.463893681148569, -34.525968730972416 ], [ -58.463800881905271, -34.526075806053832 ], [ -58.463665253348893, -34.526175744115548 ], [ -58.463558175569453, -34.526247127802947 ], [ -58.463451102286662, -34.526282820096299 ], [ -58.463365440962406, -34.526339927046251 ], [ -58.463229812406027, -34.526389894278452 ], [ -58.463165565738379, -34.526425586571804 ], [ -58.463037075101042, -34.526482694421084 ], [ -58.462965692312984, -34.526511247895989 ], [ -58.46283720077632, -34.526575492764991 ], [ -58.462744402432314, -34.526618323876789 ], [ -58.462630187633167, -34.526711123120094 ], [ -58.462537389289167, -34.526832474938992 ], [ -58.462530249571479, -34.526868166333017 ], [ -58.462501696995815, -34.526953827657266 ], [ -58.462466004702485, -34.527096595032042 ], [ -58.462466004702485, -34.52717511663856 ], [ -58.462458865884045, -34.527267915881836 ], [ -58.462423173590686, -34.527325022831803 ], [ -58.462344651984203, -34.527417822075044 ], [ -58.462287545034314, -34.527424960893484 ], [ -58.462260844162756, -34.5274154235832 ], [ -58.462187607871925, -34.527389268600132 ], [ -58.462116224184513, -34.527374991862644 ], [ -58.462109086265428, -34.527310746993621 ], [ -58.462180469952827, -34.527239362406881 ], [ -58.46223757690278, -34.527125149406345 ], [ -58.46223757690278, -34.527018073425602 ], [ -58.462209023427796, -34.526910997444823 ], [ -58.462151915578524, -34.526811059383149 ], [ -58.462044839597802, -34.526753952433197 ], [ -58.461916348960457, -34.526696844583981 ], [ -58.46178785832312, -34.526639739432682 ], [ -58.461659367685769, -34.526611185058378 ], [ -58.461480908017592, -34.526604046239974 ], [ -58.461302448349436, -34.526561216027531 ], [ -58.461138266318059, -34.526561216027517 ], [ -58.461092238116393, -34.526558793253969 ], [ -58.461002635962984, -34.526554078108447 ], [ -58.460902698800602, -34.526554078108468 ], [ -58.460759931425784, -34.526582631583437 ], [ -58.460637185657703, -34.526582631583437 ], [ -58.460567195020168, -34.526582631583416 ], [ -58.460345905139533, -34.526625461795852 ], [ -58.460210275683771, -34.526661154089247 ], [ -58.460017539278141, -34.526725398958277 ], [ -58.459946155590714, -34.526782505908152 ], [ -58.459903323579596, -34.526811059383135 ], [ -58.459803610348416, -34.526945749946655 ], [ -58.45973649214551, -34.527036408803447 ], [ -58.459649792104337, -34.527079758824037 ], [ -58.459629575344756, -34.527245898679489 ], [ -58.459610651810202, -34.527424960893477 ], [ -58.459605056228483, -34.52746811486184 ], [ -58.459593864165619, -34.527554424597277 ], [ -58.45957590020776, -34.527692942675387 ], [ -58.460250882772122, -34.528666588292637 ], [ -58.46144482462315, -34.530388893211068 ] ] ] ] } },
{ "type": "Feature", "properties": { "id": 127, "gid": 4.0, "fna": "Noroeste", "gna": "Municipio", "nam": "4", "in1": "060861", "fdc": "ARBA - Gerencia de Servicios Catastrales", "sag": "IGN" }, "geometry": { "type": "MultiPolygon", "coordinates": [ [ [ [ -58.514901653888117, -34.532247242086335 ], [ -58.528846414758725, -34.539113602267342 ], [ -58.528875999627815, -34.539053999842466 ], [ -58.529223447304396, -34.538414101629698 ], [ -58.52980789331977, -34.537337722857835 ], [ -58.52981099957811, -34.537331999572331 ], [ -58.529865846297461, -34.537366320450687 ], [ -58.533596999701913, -34.539701000001401 ], [ -58.535353999787411, -34.541563000432326 ], [ -58.537766695576728, -34.544148671823976 ], [ -58.537781000193178, -34.544163999868942 ], [ -58.542637000197594, -34.539923000346455 ], [ -58.544450000167537, -34.538303000283477 ], [ -58.545819998594226, -34.537093000242002 ], [ -58.548804999551251, -34.534481000298172 ], [ -58.553763999808943, -34.530205000060967 ], [ -58.553759606620744, -34.530201212116467 ], [ -58.55211332926693, -34.528781604387746 ], [ -58.551939733132365, -34.528631910434548 ], [ -58.55193966478388, -34.528631851978609 ], [ -58.551939598234043, -34.528631794422033 ], [ -58.546856999650991, -34.524248999691864 ], [ -58.546662595902241, -34.524106664890894 ], [ -58.545890000023682, -34.523541000317145 ], [ -58.545849999977669, -34.523429999695004 ], [ -58.545246143894559, -34.522911196994414 ], [ -58.542800020304853, -34.520809610875062 ], [ -58.540653000435761, -34.518964999735196 ], [ -58.538689999843804, -34.517246999649565 ], [ -58.538530999706019, -34.517364999695253 ], [ -58.53711600010346, -34.518527000221127 ], [ -58.534316999629944, -34.516498000182807 ], [ -58.533063000257428, -34.515605000370719 ], [ -58.532150999569126, -34.515002000442202 ], [ -58.532124572990803, -34.514986718262662 ], [ -58.530559999944188, -34.51408200028429 ], [ -58.531230000264443, -34.513086000218934 ], [ -58.526278000329597, -34.510762000066492 ], [ -58.525462846031381, -34.510394781444859 ], [ -58.525028332942405, -34.51057328453782 ], [ -58.524395776932906, -34.511144730383627 ], [ -58.522562295540986, -34.512232082542361 ], [ -58.5199861276947, -34.514080052160061 ], [ -58.516410952810894, -34.517161400754567 ], [ -58.5135924291408, -34.520264579585636 ], [ -58.510590821441426, -34.52371435102728 ], [ -58.508811604122116, -34.52616412576792 ], [ -58.507194939389443, -34.52838994125797 ], [ -58.507143052999666, -34.528469218844016 ], [ -58.514901653888117, -34.532247242086335 ] ] ] ] } },
{ "type": "Feature", "properties": { "id": 127, "gid": 5.0, "fna": "Noreste", "gna": "Municipio", "nam": "5", "in1": "060861", "fdc": "ARBA - Gerencia de Servicios Catastrales", "sag": "IGN" }, "geometry": { "type": "MultiPolygon", "coordinates": [ [ [ [ -58.478820081458018, -34.514601091972921 ], [ -58.48435203488971, -34.5172813039011 ], [ -58.493759851667107, -34.52198809536393 ], [ -58.503929059119322, -34.526903927156745 ], [ -58.507143052999666, -34.528469218844016 ], [ -58.507194939389443, -34.52838994125797 ], [ -58.508811604122116, -34.52616412576792 ], [ -58.510590821441426, -34.52371435102728 ], [ -58.5135924291408, -34.520264579585636 ], [ -58.516410952810894, -34.517161400754567 ], [ -58.5199861276947, -34.514080052160061 ], [ -58.522562295540986, -34.512232082542361 ], [ -58.524395776932906, -34.511144730383627 ], [ -58.525028332942405, -34.51057328453782 ], [ -58.525462846031381, -34.510394781444859 ], [ -58.524661999551782, -34.510033999769519 ], [ -58.521036151597258, -34.508380619570197 ], [ -58.519968999869626, -34.507894000008314 ], [ -58.518431539584022, -34.507218739553416 ], [ -58.515790999655074, -34.50605899992312 ], [ -58.514166000260865, -34.505309999557078 ], [ -58.512192805853438, -34.504407856337757 ], [ -58.512192757290073, -34.504407832955401 ], [ -58.51219270782736, -34.504407811371664 ], [ -58.50718000005709, -34.502115999753791 ], [ -58.50213988724613, -34.499819346186136 ], [ -58.498797091912373, -34.498296117671934 ], [ -58.497602999978604, -34.497751999955064 ], [ -58.495187000080129, -34.49663699979795 ], [ -58.493648812243002, -34.495943638688225 ], [ -58.493648787961327, -34.495943627896317 ], [ -58.493648763679637, -34.495943617104508 ], [ -58.491002999588893, -34.494751000058862 ], [ -58.488373381026868, -34.493572569818475 ], [ -58.487272000202772, -34.493079000295886 ], [ -58.486616567101024, -34.492775478205985 ], [ -58.486509769010759, -34.492726021788719 ], [ -58.484387000259957, -34.491742999839801 ], [ -58.481374999856499, -34.490519000052075 ], [ -58.481114999557668, -34.490437999913958 ], [ -58.481045420809657, -34.490410543611901 ], [ -58.479399567036531, -34.489761073015352 ], [ -58.479367316448631, -34.489797352566029 ], [ -58.47932448623618, -34.489825907839588 ], [ -58.479267379286227, -34.489883014789555 ], [ -58.479234066599005, -34.489944880951711 ], [ -58.479205513124036, -34.49001150542685 ], [ -58.47915792369934, -34.49009240663954 ], [ -58.479065123556708, -34.490232795307541 ], [ -58.47894615224326, -34.490482638663082 ], [ -58.478910459949866, -34.490637304068578 ], [ -58.478868818641217, -34.490768173412725 ], [ -58.478839076262481, -34.4908930964395 ], [ -58.478815281100474, -34.491000172420264 ], [ -58.478779588807129, -34.491154836926405 ], [ -58.478773640691081, -34.49129165528592 ], [ -58.478803383969129, -34.491446320691416 ], [ -58.478821230115784, -34.491654523637571 ], [ -58.478815281100474, -34.491898417977843 ], [ -58.478779588807129, -34.491987647811918 ], [ -58.478732000281681, -34.492154209449438 ], [ -58.478672513725655, -34.492267234445521 ], [ -58.478624925200286, -34.492404053704362 ], [ -58.478541642582854, -34.49252897493249 ], [ -58.478505951188815, -34.492641999928587 ], [ -58.478500003072831, -34.492749075909387 ], [ -58.478500003072831, -34.492903740415564 ], [ -58.478505951188815, -34.493040559674334 ], [ -58.47854164258284, -34.493147634755744 ], [ -58.478589232906913, -34.493236864589839 ], [ -58.478726052165705, -34.493349888686673 ], [ -58.478827179131137, -34.493415324258024 ], [ -58.47894615224326, -34.493451016551447 ], [ -58.479035382077349, -34.493456964667438 ], [ -58.479099626946372, -34.493469456250644 ], [ -58.479121041602916, -34.49351942528147 ], [ -58.479149595977205, -34.493562254594622 ], [ -58.479195994699509, -34.49359437837807 ], [ -58.479220979664603, -34.493637208590542 ], [ -58.479231686992875, -34.493680039702333 ], [ -58.479270947796124, -34.493715731995664 ], [ -58.479320916826943, -34.49372643842463 ], [ -58.47937802377691, -34.493747853980487 ], [ -58.47938159318614, -34.493783545374569 ], [ -58.479399439332795, -34.493829945895534 ], [ -58.479452976873503, -34.493847792042224 ], [ -58.479463685101102, -34.493869206698754 ], [ -58.47944226864589, -34.493908468401351 ], [ -58.479410146661046, -34.493933451567763 ], [ -58.479385161695966, -34.493947728305272 ], [ -58.479303070680331, -34.493958437432191 ], [ -58.479278086614556, -34.493979852088721 ], [ -58.479245963730349, -34.494008404664392 ], [ -58.479224549073813, -34.494015542583433 ], [ -58.479171010633756, -34.494040528447904 ], [ -58.479163871815366, -34.494069081922838 ], [ -58.47919242618962, -34.494101203907675 ], [ -58.479260239568539, -34.49415117293853 ], [ -58.479281656023694, -34.494208279888426 ], [ -58.479245963730378, -34.494226126035137 ], [ -58.479195994699516, -34.494229695444346 ], [ -58.479156733896275, -34.494261817429162 ], [ -58.479178148552798, -34.494283232985076 ], [ -58.479231686992868, -34.494343908444861 ], [ -58.479285225432932, -34.494397446884932 ], [ -58.47935303971115, -34.494418862440817 ], [ -58.479416805241478, -34.494413760586831 ], [ -58.479442268645919, -34.494411723622378 ], [ -58.479531497580673, -34.494411723622356 ], [ -58.479524360560887, -34.49446883057233 ], [ -58.479485099757653, -34.494486676719021 ], [ -58.479485099757639, -34.494568767734691 ], [ -58.479506515313567, -34.494647290240515 ], [ -58.479502945904358, -34.494697258372028 ], [ -58.479442268645904, -34.494715105418024 ], [ -58.479413716070269, -34.494765074448857 ], [ -58.479403007842684, -34.494800765842911 ], [ -58.479420853989325, -34.494857872792856 ], [ -58.479456546282734, -34.494882856858631 ], [ -58.479513653232623, -34.49494353231843 ], [ -58.479520792051062, -34.494993501349249 ], [ -58.47956005285431, -34.495025624233392 ], [ -58.479627867132464, -34.495061317426114 ], [ -58.479649281789079, -34.495086300592554 ], [ -58.479649281789065, -34.495100577330014 ], [ -58.479624297723305, -34.495104146739216 ], [ -58.479585036920071, -34.495097008820153 ], [ -58.479495807085968, -34.495093439410944 ], [ -58.479435130726799, -34.495104146739209 ], [ -58.479420853989325, -34.495150546360868 ], [ -58.479392301413739, -34.495200513593076 ], [ -58.479345900892717, -34.495211222720002 ], [ -58.479309018796279, -34.495211222719988 ], [ -58.479299502170413, -34.495211222720009 ], [ -58.479253101649455, -34.495229068866657 ], [ -58.47921741025538, -34.495221930048288 ], [ -58.479181717962021, -34.495218360639051 ], [ -58.479131749830501, -34.495246915013354 ], [ -58.479088918718723, -34.495257621442299 ], [ -58.479038950587189, -34.495261191750835 ], [ -58.47894615224326, -34.495264760260731 ], [ -58.478878337065723, -34.495254052932395 ], [ -58.478831938343419, -34.495239775295666 ], [ -58.478756985246775, -34.49523977529568 ], [ -58.478696307988322, -34.495261191750842 ], [ -58.478660615694992, -34.495318298700752 ], [ -58.478628493710104, -34.495353990994147 ], [ -58.478582094088495, -34.495411097944029 ], [ -58.47854640179515, -34.495468204893996 ], [ -58.478500003072831, -34.495514603616314 ], [ -58.478432187895272, -34.495486051040636 ], [ -58.478367943026264, -34.495468204893996 ], [ -58.478346526571094, -34.495514603616307 ], [ -58.478364373617055, -34.495578849384643 ], [ -58.478396495601928, -34.495607402859605 ], [ -58.478500003072824, -34.495632386925344 ], [ -58.478549972103664, -34.495660940400342 ], [ -58.478596370825983, -34.495693063284477 ], [ -58.478714154135055, -34.495735892597622 ], [ -58.478824798625659, -34.495768016381085 ], [ -58.478853352999963, -34.495793000446831 ], [ -58.478760553756665, -34.495839400967846 ], [ -58.478685600660071, -34.4958572471145 ], [ -58.478667755412687, -34.495885799690122 ], [ -58.478632063119328, -34.495928629902608 ], [ -58.478682032150161, -34.495950044559144 ], [ -58.478735568791585, -34.49595718337752 ], [ -58.478764123165888, -34.495967890705863 ], [ -58.478767691675785, -34.495978598933434 ], [ -58.478749846428386, -34.496000013590006 ], [ -58.478728430872536, -34.49602856796426 ], [ -58.478657047185074, -34.496035705883308 ], [ -58.478596370825983, -34.496074966686592 ], [ -58.478500003072831, -34.49608924342408 ], [ -58.478467880188646, -34.496103521060903 ], [ -58.478464310779422, -34.496132073636524 ], [ -58.478475018107716, -34.496153488293075 ], [ -58.478539263876016, -34.496164197420008 ], [ -58.478624925200258, -34.49617490474828 ], [ -58.478724860564, -34.49619988881404 ], [ -58.478803383969115, -34.496235581107427 ], [ -58.478878337065751, -34.496253426354762 ], [ -58.478956858672227, -34.496274841910676 ], [ -58.479013965622116, -34.496328378552029 ], [ -58.479071072572097, -34.49634622559806 ], [ -58.479096058436461, -34.496378347582883 ], [ -58.479071072572083, -34.496417609285459 ], [ -58.479067504062179, -34.496435455432156 ], [ -58.479021105339882, -34.496467577416979 ], [ -58.478988981556355, -34.496528254675454 ], [ -58.478963996591276, -34.496578222806995 ], [ -58.478939013424842, -34.496606776281979 ], [ -58.478903321131497, -34.496606776281965 ], [ -58.478846214181544, -34.496599636564213 ], [ -58.478792676640843, -34.496588931034587 ], [ -58.478785537822411, -34.496617483610237 ], [ -58.47882123011577, -34.496653175903596 ], [ -58.478838489904476, -34.496685230439248 ], [ -58.478846214181537, -34.496699576424547 ], [ -58.478864060328242, -34.496742405737656 ], [ -58.478910459949866, -34.496788805359316 ], [ -58.478949720753121, -34.496853051127623 ], [ -58.478988981556355, -34.496888743421025 ], [ -58.47899968978394, -34.496924434815064 ], [ -58.478999689783969, -34.496963695618305 ], [ -58.478992550965579, -34.497010094340624 ], [ -58.478987791753291, -34.497044002379027 ], [ -58.47899374076863, -34.497085642788427 ], [ -58.479088918718723, -34.497151076561202 ], [ -58.479231686992868, -34.49720461590055 ], [ -58.479267379286213, -34.497270050572638 ], [ -58.479201943714884, -34.497341434260015 ], [ -58.479065123556708, -34.497264101557271 ], [ -58.478999689783954, -34.497252205325246 ], [ -58.478868818641217, -34.497252205325253 ], [ -58.47882123011577, -34.497275999587927 ], [ -58.478755795443739, -34.497287896719293 ], [ -58.478672513725641, -34.497246256309943 ], [ -58.478595181022904, -34.497192718769199 ], [ -58.478553540613504, -34.497127284097104 ], [ -58.478440515617407, -34.497133231313803 ], [ -58.478381029960694, -34.497157025576477 ], [ -58.478279902995261, -34.497085642788399 ], [ -58.478274118555859, -34.497083232605362 ], [ -58.478208519307813, -34.497055900409684 ], [ -58.478131185705749, -34.497073745657076 ], [ -58.477934880790272, -34.49703805336371 ], [ -58.477851599971466, -34.497032104348364 ], [ -58.477774267268742, -34.49698451582298 ], [ -58.477696934565984, -34.496919080251573 ], [ -58.47764339702529, -34.496877439842201 ], [ -58.477577960554562, -34.49684769656421 ], [ -58.477458989241065, -34.496817953286147 ], [ -58.477340016128927, -34.496823902301522 ], [ -58.477232940148205, -34.496859593695547 ], [ -58.477090171874053, -34.49690718401957 ], [ -58.476971198761944, -34.496948824428934 ], [ -58.476935505569251, -34.496990464838348 ], [ -58.476858174665139, -34.497073745657069 ], [ -58.47679868810912, -34.497145129344474 ], [ -58.476727304421651, -34.497252205325253 ], [ -58.476655920734288, -34.49737117843739 ], [ -58.47658453704689, -34.497525843842872 ], [ -58.47653099860684, -34.497615072777641 ], [ -58.476489358197448, -34.497710251627026 ], [ -58.476477461066111, -34.497811378592452 ], [ -58.476471512050743, -34.497918454573266 ], [ -58.476471512050743, -34.498192093090843 ], [ -58.476477461066111, -34.49829916727299 ], [ -58.476489358197441, -34.498400294238429 ], [ -58.476477461066125, -34.498459781693832 ], [ -58.476465563934752, -34.498537112597866 ], [ -58.476453665904089, -34.498638241362016 ], [ -58.476489358197441, -34.498739368327435 ], [ -58.476536946722831, -34.498792906767441 ], [ -58.47660238319353, -34.498840495292882 ], [ -58.476661868850258, -34.498905930864296 ], [ -58.476757047699707, -34.498977314551666 ], [ -58.476807815328513, -34.49900269881573 ], [ -58.476864122781187, -34.499030852991723 ], [ -58.477108018020758, -34.499108184795134 ], [ -58.477238888264175, -34.499173618567895 ], [ -58.477365270890665, -34.499278023562162 ], [ -58.477375706623697, -34.499286643564012 ], [ -58.477411398917084, -34.499363976266743 ], [ -58.477453040225782, -34.4994413098688 ], [ -58.477482782604454, -34.499512692656872 ], [ -58.47747683358913, -34.499578129127613 ], [ -58.477316220966934, -34.499554333965591 ], [ -58.477298374820279, -34.499578129127599 ], [ -58.477244837279535, -34.499697101340423 ], [ -58.477225859785726, -34.499732947417826 ], [ -58.477191298839486, -34.499798228305842 ], [ -58.477149659329406, -34.499940995680682 ], [ -58.477129217739332, -34.500048307283826 ], [ -58.477125864167412, -34.500065917808115 ], [ -58.477125864167412, -34.500226531329567 ], [ -58.477143710314117, -34.500327658295028 ], [ -58.477155607445461, -34.500458529437822 ], [ -58.47714965932942, -34.500553707387937 ], [ -58.477090171874082, -34.500636989105992 ], [ -58.477066377611372, -34.500761910334127 ], [ -58.477042583348684, -34.500922523855643 ], [ -58.477036634333309, -34.50108908459385 ], [ -58.477030686217347, -34.501243750898645 ], [ -58.477036634333309, -34.501374622041403 ], [ -58.476994993923924, -34.501440056713484 ], [ -58.476935505569259, -34.501493594254228 ], [ -58.476905764089842, -34.501582824987615 ], [ -58.476881968927827, -34.501683951953062 ], [ -58.476876020811844, -34.501743437609761 ], [ -58.47684627663449, -34.501832667443871 ], [ -58.476816534255768, -34.501957589571369 ], [ -58.476780841962395, -34.502124152108188 ], [ -58.47676299581574, -34.502249073336301 ], [ -58.476745149669036, -34.5023204570237 ], [ -58.476709458275018, -34.502433482019789 ], [ -58.476673766880957, -34.5025881474253 ], [ -58.476644022703617, -34.5027249657848 ], [ -58.476608331309578, -34.502796348572872 ], [ -58.476566690900185, -34.502861785043592 ], [ -58.476578588031529, -34.502909373568968 ], [ -58.476608331309578, -34.502986706271713 ], [ -58.476655920734302, -34.50304024381245 ], [ -58.476768944831051, -34.503075936105802 ], [ -58.476816534255754, -34.503135422661849 ], [ -58.476768944831051, -34.503230600611957 ], [ -58.476727304421665, -34.503266292905337 ], [ -58.476661868850258, -34.503248446758668 ], [ -58.476572639016162, -34.503284139052049 ], [ -58.476536946722831, -34.503296035284038 ], [ -58.476519100576176, -34.503355522739433 ], [ -58.47652504959148, -34.503403111264809 ], [ -58.47658453704689, -34.503444752573479 ], [ -58.476649971718913, -34.503492341998253 ], [ -58.476655920734274, -34.503533982407596 ], [ -58.476626176556906, -34.503605366095044 ], [ -58.476578588031529, -34.503730287323151 ], [ -58.476548844753481, -34.503807620925215 ], [ -58.47653099860684, -34.503837363303866 ], [ -58.476376334100664, -34.503920645022006 ], [ -58.476281155251208, -34.503950387400728 ], [ -58.476185977301157, -34.503992028709369 ], [ -58.47610269558303, -34.504045566250127 ], [ -58.476007516733638, -34.504057463381464 ], [ -58.475846904111449, -34.504051514366154 ], [ -58.475751725262043, -34.504033669118769 ], [ -58.475626804033915, -34.504021771987418 ], [ -58.475489984775095, -34.504027721002799 ], [ -58.475406703956345, -34.504081259442792 ], [ -58.475317474122278, -34.504158590346883 ], [ -58.475228244288189, -34.504301358621042 ], [ -58.475133066338053, -34.504456024026538 ], [ -58.474859426921164, -34.504937864591014 ], [ -58.474746402824323, -34.505110375243859 ], [ -58.474651224874258, -34.505312630074044 ], [ -58.474833253052324, -34.50542862732955 ], [ -58.475109271176052, -34.505580914028194 ], [ -58.475193973822947, -34.505724909876903 ], [ -58.475204449126174, -34.505742715554092 ], [ -58.475309146400093, -34.505952110102029 ], [ -58.47539480592571, -34.506142466901558 ], [ -58.475423360299935, -34.506323305276567 ], [ -58.475388857809655, -34.506419078577842 ], [ -58.475442393551738, -34.506502359396642 ], [ -58.475478320568165, -34.506534692722148 ], [ -58.475501881906439, -34.506555897836684 ], [ -58.475561367563209, -34.506662973817406 ], [ -58.475549471331192, -34.50677599791419 ], [ -58.475525677068447, -34.506900920041687 ], [ -58.475567316578513, -34.507002047007113 ], [ -58.475620855018562, -34.507049636431809 ], [ -58.47564465018057, -34.507168608644662 ], [ -58.475585162725231, -34.50729947978737 ], [ -58.47546618961308, -34.507358965444148 ], [ -58.475317474122264, -34.507335172080779 ], [ -58.47525203855087, -34.507394657737485 ], [ -58.475193902776518, -34.507435352959405 ], [ -58.475133066338053, -34.507477938556221 ], [ -58.475043835604644, -34.507537426011659 ], [ -58.47491296356251, -34.507632603961731 ], [ -58.474782095117746, -34.507703987649158 ], [ -58.474603635449554, -34.507763475104525 ], [ -58.474490609554088, -34.507817011745928 ], [ -58.474365689225294, -34.507864602069944 ], [ -58.474335945947296, -34.507888395433312 ], [ -58.474288357421855, -34.507906241580024 ], [ -58.474216972835144, -34.507995471414112 ], [ -58.474121794885029, -34.508060906985513 ], [ -58.474080153576367, -34.508138239688265 ], [ -58.473980217313283, -34.508465415746549 ], [ -58.473965939676518, -34.508643875414741 ], [ -58.473958800858085, -34.50878664278958 ], [ -58.473923108564726, -34.508929409265086 ], [ -58.47392310856474, -34.509029347326752 ], [ -58.473965939676525, -34.509129283589786 ], [ -58.474172952819629, -34.509222083732418 ], [ -58.474337135750297, -34.509279190682314 ], [ -58.474594117924305, -34.509371989925633 ], [ -58.474602100306811, -34.509375714917553 ], [ -58.474701193005778, -34.509421958956452 ], [ -58.474758299955681, -34.509479065906419 ], [ -58.474731044707013, -34.509528126365382 ], [ -58.474686917167602, -34.509607557443083 ], [ -58.474515595418545, -34.509628972099613 ], [ -58.474452998107481, -34.509619697391358 ], [ -58.474322859012865, -34.509600417725323 ], [ -58.474208645113023, -34.509586141887162 ], [ -58.474037324263236, -34.509571864250404 ], [ -58.473830311120068, -34.509557588412228 ], [ -58.473616159158532, -34.509550449593789 ], [ -58.473416283934512, -34.509550449593803 ], [ -58.47328779329716, -34.509593279806282 ], [ -58.473187856134743, -34.509664662594318 ], [ -58.473109333628997, -34.509843122262509 ], [ -58.473123611265798, -34.509914506849277 ], [ -58.473166440578872, -34.510021582829992 ], [ -58.473166440578872, -34.510100104436496 ], [ -58.473087918972375, -34.510057275123422 ], [ -58.473030812022479, -34.510021582830014 ], [ -58.472959428335038, -34.509914506849242 ], [ -58.472909459304212, -34.509828846424327 ], [ -58.472888043748334, -34.509736048080406 ], [ -58.47287376701086, -34.509671801412772 ], [ -58.472823798879325, -34.509650386756142 ], [ -58.472709584080178, -34.509621833281237 ], [ -58.472595370180315, -34.509621833281251 ], [ -58.472409771693719, -34.509636110018683 ], [ -58.472288419874808, -34.509736048080413 ], [ -58.472209898268304, -34.509807431767811 ], [ -58.472102822287511, -34.509786015312606 ], [ -58.471945777275934, -34.509828846424334 ], [ -58.471860116851012, -34.509900231011102 ], [ -58.471775155199374, -34.510059533321055 ], [ -58.471745902951163, -34.510114382073311 ], [ -58.471674519263772, -34.510257149448158 ], [ -58.471631689051321, -34.510349948691434 ], [ -58.471567443282979, -34.51040705564133 ], [ -58.47153175098962, -34.51044274793469 ], [ -58.47148178285812, -34.5105426850971 ], [ -58.471438951746336, -34.510649761077836 ], [ -58.47140325855365, -34.510749697340877 ], [ -58.471374706877313, -34.51079966637171 ], [ -58.471317599927424, -34.510842496584175 ], [ -58.471281907634065, -34.51085677332167 ], [ -58.471124862622439, -34.510913880271566 ], [ -58.471083283158571, -34.510970152442304 ], [ -58.478820081458018, -34.514601091972921 ] ] ] ] } },
{ "type": "Feature", "properties": { "id": 127, "gid": 1.0, "fna": "Sureste", "gna": "Municipio", "nam": "1", "in1": "060861", "fdc": "ARBA - Gerencia de Servicios Catastrales", "sag": "IGN" }, "geometry": { "type": "MultiPolygon", "coordinates": [ [ [ [ -58.507143052999666, -34.528469218844016 ], [ -58.503929059119322, -34.526903927156745 ], [ -58.493759851667107, -34.52198809536393 ], [ -58.48435203488971, -34.5172813039011 ], [ -58.478820081458018, -34.514601091972921 ], [ -58.471083283158571, -34.510970152442304 ], [ -58.471035633687642, -34.511034639437298 ], [ -58.470864311938541, -34.511177405912797 ], [ -58.470800648031627, -34.511222345035442 ], [ -58.470702508614004, -34.511291619812638 ], [ -58.470596055863432, -34.511376083239888 ], [ -58.470589485416554, -34.511377875588721 ], [ -58.470475270617364, -34.511442119558431 ], [ -58.470446717142394, -34.511484951569528 ], [ -58.470389610192498, -34.511620581025205 ], [ -58.470377578162797, -34.511776995612088 ], [ -58.47037533255569, -34.511806178612517 ], [ -58.470375332555705, -34.511991777099063 ], [ -58.470373103136346, -34.511998691086951 ], [ -58.470303948868263, -34.512213066979719 ], [ -58.470275396292607, -34.51237724901106 ], [ -58.470225427261759, -34.512477187072747 ], [ -58.470118351281016, -34.512562846598293 ], [ -58.47003269085608, -34.51260567771012 ], [ -58.469932752794406, -34.512648507922556 ], [ -58.46977570868215, -34.512698476953403 ], [ -58.469647218044813, -34.512712752791558 ], [ -58.469425928164178, -34.512769859741461 ], [ -58.469268884051857, -34.512762721822412 ], [ -58.469147531333647, -34.512762721822412 ], [ -58.468976209584504, -34.51280555203482 ], [ -58.468819164572892, -34.512869797803162 ], [ -58.468690674834924, -34.512934042672157 ], [ -58.468597875591605, -34.513012566077279 ], [ -58.468483661691764, -34.513169609290287 ], [ -58.468412278004315, -34.513326653402579 ], [ -58.468369447791915, -34.513448007020159 ], [ -58.468348032235987, -34.513576497657503 ], [ -58.468340894316931, -34.513669296900773 ], [ -58.468369447791915, -34.513804924557867 ], [ -58.468362308973482, -34.513883447962989 ], [ -58.468376585710985, -34.513954831650373 ], [ -58.468369447791915, -34.514011938600326 ], [ -58.468355171054441, -34.514076184368655 ], [ -58.468419415923435, -34.514161844793534 ], [ -58.468469384954268, -34.514218951743501 ], [ -58.468490799610834, -34.514304613067686 ], [ -58.468533629823298, -34.514390272593211 ], [ -58.468576460935012, -34.514461656280659 ], [ -58.46861215322842, -34.514518763230576 ], [ -58.46861929114749, -34.51461870129225 ], [ -58.468633567884979, -34.514690085879003 ], [ -58.468704951572349, -34.514775745404556 ], [ -58.468797750815646, -34.514832852354495 ], [ -58.468886457244288, -34.514868335105803 ], [ -58.468904825897134, -34.514875682566917 ], [ -58.468911964715495, -34.514889959304405 ], [ -58.468961932847023, -34.5149898973661 ], [ -58.468965298803987, -34.515070675795428 ], [ -58.469069918593732, -34.515074894485736 ], [ -58.469250024651487, -34.515100122956085 ], [ -58.469686212361481, -34.515169232718328 ], [ -58.470137062874713, -34.51526555940027 ], [ -58.470726028635497, -34.515418924829973 ], [ -58.471409791461859, -34.515316763378948 ], [ -58.472113630555832, -34.515280886794635 ], [ -58.472421986014524, -34.515339786772444 ], [ -58.472487843279836, -34.515589461133523 ], [ -58.472399637228605, -34.515950572794544 ], [ -58.472306038226257, -34.51654264987566 ], [ -58.472276758464936, -34.517028285186008 ], [ -58.472101901805161, -34.51757046521162 ], [ -58.471755282876885, -34.518024702943521 ], [ -58.471371372903882, -34.518240661409877 ], [ -58.471279237910586, -34.518378746240231 ], [ -58.471303237986696, -34.518668061055088 ], [ -58.471291828862618, -34.51909477726727 ], [ -58.471213068927547, -34.519455774196018 ], [ -58.471032510456084, -34.519943231411759 ], [ -58.470848235492504, -34.520219400546218 ], [ -58.470336607931266, -34.520432980428154 ], [ -58.470009067062023, -34.520628688217926 ], [ -58.469802234842078, -34.520697708309356 ], [ -58.469734830946329, -34.520898111407114 ], [ -58.469551511834496, -34.521229057054875 ], [ -58.469227140782621, -34.521874784768407 ], [ -58.468612769143547, -34.52297014599624 ], [ -58.468425206178942, -34.523598571998804 ], [ -58.4683662330524, -34.524010205487237 ], [ -58.468279501269187, -34.5241873587686 ], [ -58.468244703008999, -34.524359974031 ], [ -58.468054044478599, -34.524812326198749 ], [ -58.467847759458202, -34.525182681031445 ], [ -58.467524107057912, -34.525601408807496 ], [ -58.467150094936635, -34.526114666353998 ], [ -58.466846992835698, -34.526627071022688 ], [ -58.46663322629869, -34.526840971109586 ], [ -58.46578965466135, -34.527273764800455 ], [ -58.464601157255643, -34.527992466923827 ], [ -58.463719741233881, -34.528425700423874 ], [ -58.463249157242473, -34.528556574376204 ], [ -58.463090877678802, -34.528699359290975 ], [ -58.462924373921197, -34.528912686719323 ], [ -58.462449529947676, -34.529341039685733 ], [ -58.46177693316023, -34.529818721092987 ], [ -58.46144482462315, -34.530388893211068 ], [ -58.46348607961901, -34.533333280107065 ], [ -58.46353158891182, -34.533398919824542 ], [ -58.475865976034079, -34.538718865683336 ], [ -58.493798610821614, -34.546454003790402 ], [ -58.496555042387278, -34.542640858877746 ], [ -58.498448912617008, -34.540645207087969 ], [ -58.500115737401906, -34.538652316350081 ], [ -58.503476282359863, -34.534071279253773 ], [ -58.507143052999666, -34.528469218844016 ] ] ] ] } },
{ "type": "Feature", "properties": { "id": 127, "gid": 2.0, "fna": "Suroeste", "gna": "Municipio", "nam": "2", "in1": "060861", "fdc": "ARBA - Gerencia de Servicios Catastrales", "sag": "IGN" }, "geometry": { "type": "MultiPolygon", "coordinates": [ [ [ [ -58.528846414758725, -34.539113602267342 ], [ -58.514901653888117, -34.532247242086335 ], [ -58.507143052999666, -34.528469218844016 ], [ -58.503476282359863, -34.534071279253773 ], [ -58.500115737401906, -34.538652316350081 ], [ -58.498448912617008, -34.540645207087969 ], [ -58.496555042387278, -34.542640858877746 ], [ -58.493798610821614, -34.546454003790402 ], [ -58.499147390439866, -34.548760369195932 ], [ -58.500770149622838, -34.549460280068104 ], [ -58.509958028340485, -34.569201828901491 ], [ -58.509958041830309, -34.569201856780502 ], [ -58.509959728958442, -34.569205135708678 ], [ -58.51013481616895, -34.568957368887716 ], [ -58.510548597839659, -34.568371819404206 ], [ -58.510816999604963, -34.567991999731248 ], [ -58.512173519892151, -34.566789199662082 ], [ -58.513181999849586, -34.565895000154406 ], [ -58.514327999637608, -34.564417000344513 ], [ -58.516009434188177, -34.562100031091816 ], [ -58.516852000019931, -34.560939000035077 ], [ -58.518313437015664, -34.559011380571 ], [ -58.519105999642314, -34.557965999631399 ], [ -58.520722000420129, -34.555713000055178 ], [ -58.520982999865694, -34.555385000217818 ], [ -58.522796999881798, -34.553071999673286 ], [ -58.524612999990111, -34.550439999706434 ], [ -58.525806564021835, -34.547127859563304 ], [ -58.525932999708303, -34.546776999858878 ], [ -58.526613999636496, -34.545029000188435 ], [ -58.526690999590095, -34.544984999958032 ], [ -58.52901699983483, -34.54237300001413 ], [ -58.52897768327361, -34.542353967661697 ], [ -58.527574999886468, -34.541675000201344 ], [ -58.528739931302958, -34.539328125792608 ], [ -58.528846414758725, -34.539113602267342 ] ] ] ] } }
]
}
